address_name,category_group_code,category_group_name,category_name,distance,id,phone,place_name,place_url,road_address_name,x,y
서울 종로구 관훈동 37,PM9,약국,"의료,건강 > 약국",,8450060,02-732-3336,수도약국,http://place.map.kakao.com/8450060,서울 종로구 인사동길 40,126.985125322461,37.5740493763544
서울 종로구 적선동 100-1,PM9,약국,"의료,건강 > 약국",,9291358,02-725-1491,옥인온누리약국,http://place.map.kakao.com/9291358,서울 종로구 자하문로2길 4,126.972921345297,37.5764114176478
서울 종로구 누하동 5-2,PM9,약국,"의료,건강 > 약국",,8373913,02-739-8851,세민약국,http://place.map.kakao.com/8373913,서울 종로구 자하문로7길 73,126.968780903988,37.5803963931813
서울 종로구 관철동 12-13,PM9,약국,"의료,건강 > 약국",,10612451,02-734-9020,신코아약국,http://place.map.kakao.com/10612451,서울 종로구 종로12길 23,126.98591643466969,37.56892100879384
서울 종로구 관철동 5-1,PM9,약국,"의료,건강 > 약국",,10133800,02-2275-7225,국일약국,http://place.map.kakao.com/10133800,서울 종로구 종로16길 12,126.988512999424,37.5695700067744
서울 종로구 종로6가 215-56,PM9,약국,"의료,건강 > 약국",,10641821,02-764-4868,영화약국,http://place.map.kakao.com/10641821,서울 종로구 종로41길 47,127.005895476129,37.5733113504745
서울 종로구 종로6가 127-1,PM9,약국,"의료,건강 > 약국",,1196699658,02-763-3237,종로세란약국,http://place.map.kakao.com/1196699658,서울 종로구 종로41길 4,127.0068676994876,37.57148227796673
서울 종로구 창신동 143-18,PM9,약국,"의료,건강 > 약국",,8844191,02-744-2434,대경약국,http://place.map.kakao.com/8844191,서울 종로구 종로51나길 2,127.01230362006245,37.57252158494312
서울 종로구 숭인동 240-1,PM9,약국,"의료,건강 > 약국",,1905282365,02-2238-7119,동묘약국,http://place.map.kakao.com/1905282365,서울 종로구 종로58길 44,127.018354995608,37.5714900607722
서울 종로구 청진동 136,PM9,약국,"의료,건강 > 약국",,943018389,02-723-6593,힐링약국,http://place.map.kakao.com/943018389,서울 종로구 종로5길 13,126.980466736668,37.5710321661356
서울 종로구 숭인동 56-42,PM9,약국,"의료,건강 > 약국",,9205888,02-765-5885,숭인다모아약국,http://place.map.kakao.com/9205888,서울 종로구 지봉로8길 54,127.015753676918,37.5766873744829
서울 종로구 창신동 131-8,PM9,약국,"의료,건강 > 약국",,13509672,02-763-5493,금왕약국,http://place.map.kakao.com/13509672,서울 종로구 창신5길 19,127.011618976056,37.5738803546574
서울 종로구 창신동 647-16,PM9,약국,"의료,건강 > 약국",,8573166,02-3672-0845,창신종로약국,http://place.map.kakao.com/8573166,서울 종로구 창신길 47,127.01048694287819,37.57373269749416
서울 종로구 창신동 131-8,PM9,약국,"의료,건강 > 약국",,13509672,02-763-5493,금왕약국,http://place.map.kakao.com/13509672,서울 종로구 창신5길 19,127.011618976056,37.5738803546574
서울 종로구 창신동 687-26,PM9,약국,"의료,건강 > 약국",,13500347,02-743-7371,동인약국,http://place.map.kakao.com/13500347,서울 종로구 창신길 11,127.0105625749251,37.572227128174994
서울 종로구 창신동 634,PM9,약국,"의료,건강 > 약국",,9624073,02-763-4386,효성약국,http://place.map.kakao.com/9624073,서울 종로구 창신길 95,127.01035026231027,37.575847344075655
서울 종로구 평창동 331,PM9,약국,"의료,건강 > 약국",,11960165,02-395-9105,국화약국,http://place.map.kakao.com/11960165,서울 종로구 평창11길 3,126.96660261982765,37.60596324221867
서울 종로구 평창동 331,PM9,약국,"의료,건강 > 약국",,11960165,02-395-9105,국화약국,http://place.map.kakao.com/11960165,서울 종로구 평창11길 3,126.96660261982765,37.60596324221867
서울 종로구 당주동 100,PM9,약국,"의료,건강 > 약국",,18253454,02-3210-2292,세종약국,http://place.map.kakao.com/18253454,서울 종로구 세종대로23길 54,126.97291850299607,37.57175597702993
서울 종로구 세종로 202-1,PM9,약국,"의료,건강 > 약국",,145624527,02-720-1717,광화문윤약국,http://place.map.kakao.com/145624527,서울 종로구 세종대로 159,126.97634197398,37.5706097458146
서울 종로구 명륜2가 143-9,PM9,약국,"의료,건강 > 약국",,8438898,02-765-2126,소담약국,http://place.map.kakao.com/8438898,서울 종로구 성균관로 18,126.997654140212,37.5843973053354
서울 종로구 명륜2가 230,PM9,약국,"의료,건강 > 약국",,920604622,02-766-8273,혜화설약국,http://place.map.kakao.com/920604622,서울 종로구 성균관로 1,126.998407059396,37.5832242246134
서울 종로구 명륜1가 16-31,PM9,약국,"의료,건강 > 약국",,11361226,02-747-3443,명륜시장약국,http://place.map.kakao.com/11361226,서울 종로구 성균관로 56-1,126.996784490337,37.5876985230651
서울 종로구 명륜3가 2-3,PM9,약국,"의료,건강 > 약국",,8949178,02-742-4816,동호약국,http://place.map.kakao.com/8949178,서울 종로구 성균관로 53,126.99643917636405,37.58741199746433
서울 종로구 명륜2가 71-2,PM9,약국,"의료,건강 > 약국",,10777162,02-766-9438,지영오행당약국,http://place.map.kakao.com/10777162,서울 종로구 성균관로 32-2,126.9970427225426,37.585533443936235
서울 종로구 견지동 109,PM9,약국,"의료,건강 > 약국",,1454897546,02-737-4510,대도약국,http://place.map.kakao.com/1454897546,서울 종로구 우정국로 38-1,126.98324426620425,37.572475086246364
서울 종로구 원남동 133-1,PM9,약국,"의료,건강 > 약국",,27245308,02-3672-3672,대학약국 원남점,http://place.map.kakao.com/27245308,서울 종로구 창경궁로 162,126.99743362788377,37.5767893091196
서울 종로구 원남동 128-1,PM9,약국,"의료,건강 > 약국",,10720027,02-765-7200,정문약국,http://place.map.kakao.com/10720027,서울 종로구 창경궁로 162-2,126.99766796099681,37.57687220546372
서울 종로구 원남동 118-1,PM9,약국,"의료,건강 > 약국",,10056868,02-3676-4411,한마음약국,http://place.map.kakao.com/10056868,서울 종로구 창경궁로 158,126.99748457739773,37.57658208150523
서울 종로구 원남동 135-1,PM9,약국,"의료,건강 > 약국",,10626358,02-741-0808,옥광약국,http://place.map.kakao.com/10626358,서울 종로구 창경궁로 162-1,126.99740758739793,37.576881209976634
서울 종로구 명륜4가 188-4,PM9,약국,"의료,건강 > 약국",,25807252,02-762-0045,혜화수약국,http://place.map.kakao.com/25807252,서울 종로구 창경궁로 234,126.9985225535394,37.582493520426574
서울 종로구 원남동 118-1,PM9,약국,"의료,건강 > 약국",,8873484,02-762-6060,대서울약국,http://place.map.kakao.com/8873484,서울 종로구 창경궁로 158,126.99757288159668,37.57645774612371
서울 종로구 혜화동 114-2,PM9,약국,"의료,건강 > 약국",,11248460,02-762-2211,성진약국,http://place.map.kakao.com/11248460,서울 종로구 창경궁로 271-1,127.0006193075408,37.58555780616829
서울 종로구 명륜4가 95,PM9,약국,"의료,건강 > 약국",,10495947,02-3676-4000,서울종로약국,http://place.map.kakao.com/10495947,서울 종로구 대학로 117,127.001652913807,37.5818240798862
서울 종로구 명륜4가 92,PM9,약국,"의료,건강 > 약국",,1931691670,02-741-1230,서울혜화약국,http://place.map.kakao.com/1931691670,서울 종로구 대학로 123,127.001603106612,37.5821340223666
서울 종로구 동숭동 1-33,PM9,약국,"의료,건강 > 약국",,27587351,02-766-8991,하트약국,http://place.map.kakao.com/27587351,서울 종로구 대학로 128,127.00215560609931,37.582703441474
서울 종로구 명륜4가 93,PM9,약국,"의료,건강 > 약국",,270478329,02-743-7735,파랑새약국,http://place.map.kakao.com/270478329,서울 종로구 대학로 121,127.00159631182503,37.582042121114654
서울 종로구 명륜4가 94-2,PM9,약국,"의료,건강 > 약국",,13630857,02-747-0500,서울위드팜약국,http://place.map.kakao.com/13630857,서울 종로구 대학로 119,127.00167782311306,37.58193039677975
서울 종로구 명륜4가 98-1,PM9,약국,"의료,건강 > 약국",,22544622,02-766-9000,메디칼서울약국,http://place.map.kakao.com/22544622,서울 종로구 대학로9길 6,127.00152951100588,37.58180786366465
서울 종로구 명륜4가 47,PM9,약국,"의료,건강 > 약국",,600013550,02-765-9997,행운약국,http://place.map.kakao.com/600013550,서울 종로구 대명길 21-2,127.000361157179,37.5832386507033
서울 종로구 연건동 32-2,PM9,약국,"의료,건강 > 약국",,23283235,02-741-0370,함춘약국,http://place.map.kakao.com/23283235,서울 종로구 대학로 93,127.00187928423628,37.57959141391186
서울 종로구 혜화동 90-18,PM9,약국,"의료,건강 > 약국",,486588535,02-763-0902,스타약국,http://place.map.kakao.com/486588535,서울 종로구 대학로 146,127.002028847699,37.5842495483206
서울 종로구 명륜4가 144,PM9,약국,"의료,건강 > 약국",,9370791,02-763-3248,정민약국,http://place.map.kakao.com/9370791,서울 종로구 대학로9길 37,126.99999886786496,37.5819772603703
서울 종로구 동숭동 130-65,PM9,약국,"의료,건강 > 약국",,16618563,02-762-4636,한독약국,http://place.map.kakao.com/16618563,서울 종로구 동숭길 52,127.00445599881427,37.58055450722302
서울 종로구 연건동 39,PM9,약국,"의료,건강 > 약국",,2130354708,02-744-8908,바른약국,http://place.map.kakao.com/2130354708,서울 종로구 대학로 89,127.00189625502647,37.5791697484503
서울 종로구 연건동 44-1,PM9,약국,"의료,건강 > 약국",,1922722054,02-3676-1720,대한약국,http://place.map.kakao.com/1922722054,서울 종로구 대학로5길 57,127.00157475000174,37.579609438246194
서울 종로구 명륜2가 230,PM9,약국,"의료,건강 > 약국",,920604622,02-766-8273,혜화설약국,http://place.map.kakao.com/920604622,서울 종로구 성균관로 1,126.998407059396,37.5832242246134
서울 종로구 연건동 34-3,PM9,약국,"의료,건강 > 약국",,8366242,02-762-2515,보광약국,http://place.map.kakao.com/8366242,서울 종로구 대학로 93-3,127.00172078785532,37.579481495065636
서울 종로구 소격동 153,PM9,약국,"의료,건강 > 약국",,1264402530,02-720-8081,북촌약국,http://place.map.kakao.com/1264402530,서울 종로구 율곡로3길 71,126.98202247030657,37.57875393751818
서울 종로구 연건동 198-2,PM9,약국,"의료,건강 > 약국",,9633620,02-747-1139,희망약국,http://place.map.kakao.com/9633620,서울 종로구 율곡로 204,127.001525993647,37.5758811247478
서울 종로구 안국동 163,PM9,약국,"의료,건강 > 약국",,17469594,02-735-8242,안국3층약국,http://place.map.kakao.com/17469594,서울 종로구 율곡로 47,126.98458148695194,37.57632071400762
서울 종로구 계동 140-2,PM9,약국,"의료,건강 > 약국",,13513727,02-746-7750,현대온누리약국,http://place.map.kakao.com/13513727,서울 종로구 율곡로 75,126.987402265171,37.5780356409098
서울 종로구 옥인동 19-33,PM9,약국,"의료,건강 > 약국",,10801195,02-736-0806,종로프라자약국,http://place.map.kakao.com/10801195,서울 종로구 자하문로 63,126.97060994056125,37.58155373865239
서울 종로구 적선동 106-3,PM9,약국,"의료,건강 > 약국",,10538589,02-736-6512,시민약국,http://place.map.kakao.com/10538589,서울 종로구 자하문로 2,126.97276062495328,37.57632668719058
서울 종로구 내자동 67-1,PM9,약국,"의료,건강 > 약국",,1592867836,,행복약국,http://place.map.kakao.com/1592867836,서울 종로구 자하문로 1,126.972281770404,37.5763202687714
서울 종로구 누하동 5-2,PM9,약국,"의료,건강 > 약국",,8373913,02-739-8851,세민약국,http://place.map.kakao.com/8373913,서울 종로구 자하문로7길 73,126.968780903988,37.5803963931813
서울 종로구 창성동 158-5,PM9,약국,"의료,건강 > 약국",,18051458,02-723-5489,햇살약국,http://place.map.kakao.com/18051458,서울 종로구 자하문로 58,126.9712270639817,37.581259265765816
서울 종로구 적선동 100-1,PM9,약국,"의료,건강 > 약국",,9291358,02-725-1491,옥인온누리약국,http://place.map.kakao.com/9291358,서울 종로구 자하문로2길 4,126.972921345297,37.5764114176478
서울 종로구 종로4가 8,PM9,약국,"의료,건강 > 약국",,8520072,02-745-3184,종로약국,http://place.map.kakao.com/8520072,서울 종로구 종로 195,126.999316289729,37.5711166716871
서울 종로구 종로5가 36-1,PM9,약국,"의료,건강 > 약국",,8519376,02-745-8495,종로백제약국,http://place.map.kakao.com/8519376,서울 종로구 종로 235,127.00399925918396,37.57124544824023
서울 종로구 종로5가 214-1,PM9,약국,"의료,건강 > 약국",,10398617,02-2264-1161,종로5가백화점약국,http://place.map.kakao.com/10398617,서울 종로구 종로 234-1,127.003749068898,37.5707598200089
서울 종로구 명륜4가 95,PM9,약국,"의료,건강 > 약국",,10495947,02-3676-4000,서울종로약국,http://place.map.kakao.com/10495947,서울 종로구 대학로 117,127.001652913807,37.5818240798862
서울 종로구 창신동 562,PM9,약국,"의료,건강 > 약국",,1185717860,02-742-0900,종로온누리약국,http://place.map.kakao.com/1185717860,서울 종로구 종로 293,127.01044593088932,37.57187394847407
서울 종로구 종로5가 85-5,PM9,약국,"의료,건강 > 약국",,63697816,02-744-7233,종로중앙약국,http://place.map.kakao.com/63697816,서울 종로구 대학로 1,127.00176474681,37.5713103744519
서울 종로구 종로5가 91,PM9,약국,"의료,건강 > 약국",,10803639,02-766-5466,종로5가미래약국,http://place.map.kakao.com/10803639,서울 종로구 종로 211-1,127.00125988456037,37.57118964755884
서울 종로구 종로4가 182,PM9,약국,"의료,건강 > 약국",,11232289,02-2275-4700,종로우리약국,http://place.map.kakao.com/11232289,서울 종로구 종로 202,127.0000622580279,37.57068689890154
서울 종로구 종로3가 20,PM9,약국,"의료,건강 > 약국",,97853138,02-743-1937,종로센트럴약국,http://place.map.kakao.com/97853138,서울 종로구 종로 127-2,126.991772883752,37.5706947212092
서울 종로구 종로2가 8-4,PM9,약국,"의료,건강 > 약국",,733425349,02-739-9856,종로엔약국,http://place.map.kakao.com/733425349,서울 종로구 종로 65,126.98468458387403,37.57040028996443
서울 종로구 옥인동 19-33,PM9,약국,"의료,건강 > 약국",,10801195,02-736-0806,종로프라자약국,http://place.map.kakao.com/10801195,서울 종로구 자하문로 63,126.97060994056125,37.58155373865239
서울 종로구 종로4가 10,PM9,약국,"의료,건강 > 약국",,39208948,02-766-1777,종로태양약국,http://place.map.kakao.com/39208948,서울 종로구 종로 191,126.999003866358,37.5710770256733
서울 종로구 종로5가 231-1,PM9,약국,"의료,건강 > 약국",,2034079807,02-2285-5631,종로삼성약국,http://place.map.kakao.com/2034079807,서울 종로구 종로 244-1,127.004920654229,37.5707795988864
서울 종로구 종로5가 88-4,PM9,약국,"의료,건강 > 약국",,713595294,02-763-8855,종로오가약국,http://place.map.kakao.com/713595294,서울 종로구 종로 213-1,127.00152589783,37.5711851394441
서울 종로구 종로5가 76,PM9,약국,"의료,건강 > 약국",,18478070,02-744-2536,종로백세약국,http://place.map.kakao.com/18478070,서울 종로구 종로 221,127.00231714818622,37.57125450319819
서울 종로구 구기동 110-1,PM9,약국,"의료,건강 > 약국",,13513680,02-379-5632,사랑약국,http://place.map.kakao.com/13513680,서울 종로구 진흥로 432,126.956583236092,37.6082043468635
서울 종로구 구기동 94,PM9,약국,"의료,건강 > 약국",,10632810,02-379-9920,예은약국,http://place.map.kakao.com/10632810,서울 종로구 진흥로 456,126.95844818147543,37.60677154373598
서울 종로구 관철동 287,PM9,약국,"의료,건강 > 약국",,13509935,02-734-4690,광교약국,http://place.map.kakao.com/13509935,서울 종로구 청계천로 49,126.98312051194254,37.56908642533387
서울 종로구 혜화동 109-1,PM9,약국,"의료,건강 > 약국",,11203913,02-762-0373,혜화약국,http://place.map.kakao.com/11203913,서울 종로구 혜화로 8,127.000507227013,37.5864732155588
서울 종로구 혜화동 108-1,PM9,약국,"의료,건강 > 약국",,13511968,02-764-9918,건강약국,http://place.map.kakao.com/13511968,서울 종로구 혜화로 2,127.00087405603021,37.58606236063661
서울 종로구 평창동 300-1,PM9,약국,"의료,건강 > 약국",,10519737,02-391-3469,경일약국,http://place.map.kakao.com/10519737,서울 종로구 평창문화로 35,126.965314252204,37.605068187591
서울 종로구 평창동 158-1,PM9,약국,"의료,건강 > 약국",,21212366,02-3216-6700,글로리아약국,http://place.map.kakao.com/21212366,서울 종로구 평창문화로 75,126.96911080107944,37.606695529088505
서울 종로구 평창동 158-1,PM9,약국,"의료,건강 > 약국",,25430173,,요셉약국,http://place.map.kakao.com/25430173,서울 종로구 평창문화로 75,126.969141328585,37.6068171706923
서울 종로구 교남동 8-2,PM9,약국,"의료,건강 > 약국",,22124861,02-730-0737,신서대문대학약국,http://place.map.kakao.com/22124861,서울 종로구 경교장1길 1,126.96562371147516,37.56750588477622
서울 종로구 평동 233,PM9,약국,"의료,건강 > 약국",,2092170101,02-735-7735,서대문권약국,http://place.map.kakao.com/2092170101,서울 종로구 경교장길 35,126.9666137063108,37.56847293726175
서울 종로구 평동 233,PM9,약국,"의료,건강 > 약국",,2061853414,02-723-7581,일등약국,http://place.map.kakao.com/2061853414,서울 종로구 경교장길 35,126.96628562922729,37.56806739598806
서울 종로구 평동 233,PM9,약국,"의료,건강 > 약국",,1020047010,02-723-3363,위드팜삼정바로약국,http://place.map.kakao.com/1020047010,서울 종로구 경교장길 35,126.966701948354,37.5685819826513
서울 종로구 평동 233,PM9,약국,"의료,건강 > 약국",,22958967,02-739-0399,메디칼약국,http://place.map.kakao.com/22958967,서울 종로구 경교장길 35,126.96587258579066,37.56782851345344
서울 종로구 교남동 8-2,PM9,약국,"의료,건강 > 약국",,22124861,02-730-0737,신서대문대학약국,http://place.map.kakao.com/22124861,서울 종로구 경교장1길 1,126.96562371147516,37.56750588477622
서울 종로구 평동 233,PM9,약국,"의료,건강 > 약국",,1963411626,02-723-0588,하나약국,http://place.map.kakao.com/1963411626,서울 종로구 경교장길 35,126.96671329614256,37.56851801516369
서울 종로구 평동 233,PM9,약국,"의료,건강 > 약국",,250788085,02-733-9629,굿모닝약국,http://place.map.kakao.com/250788085,서울 종로구 경교장길 35,126.96594166577134,37.56775645374499
서울 종로구 교북동 126,PM9,약국,"의료,건강 > 약국",,885667457,02-723-6209,파란문약국,http://place.map.kakao.com/885667457,서울 종로구 송월길 155,126.96148229444516,37.57139059962776
서울 종로구 홍파동 199,PM9,약국,"의료,건강 > 약국",,1470942895,02-725-9880,참자연약국,http://place.map.kakao.com/1470942895,서울 종로구 송월길 99,126.96378807429102,37.56916136597175
서울 종로구 홍파동 199,PM9,약국,"의료,건강 > 약국",,1758219292,02-733-3342,경희궁햇살약국,http://place.map.kakao.com/1758219292,서울 종로구 송월길 99,126.96300551459565,37.56994679136528
서울 종로구 명륜4가 47,PM9,약국,"의료,건강 > 약국",,600013550,02-765-9997,행운약국,http://place.map.kakao.com/600013550,서울 종로구 대명길 21-2,127.000361157179,37.5832386507033
서울 종로구 연건동 110,PM9,약국,"의료,건강 > 약국",,752686082,02-763-7639,교회옆약국,http://place.map.kakao.com/752686082,서울 종로구 대학로5길 35,127.000652083912,37.5790093849486
서울 종로구 연건동 44-1,PM9,약국,"의료,건강 > 약국",,1922722054,02-3676-1720,대한약국,http://place.map.kakao.com/1922722054,서울 종로구 대학로5길 57,127.00157475000174,37.579609438246194
서울 종로구 연건동 44-10,PM9,약국,"의료,건강 > 약국",,592431773,02-745-8272,서울온누리약국,http://place.map.kakao.com/592431773,서울 종로구 대학로5길 54,127.0014626690426,37.57944906276315
서울 종로구 연건동 44-5,PM9,약국,"의료,건강 > 약국",,1766020568,02-742-5888,서울이약국,http://place.map.kakao.com/1766020568,서울 종로구 대학로5길 51,127.001313233217,37.5795031241583
서울 종로구 연건동 44-8,PM9,약국,"의료,건강 > 약국",,1984342694,02-763-0300,이화약국,http://place.map.kakao.com/1984342694,서울 종로구 대학로5길 53,127.00140719816555,37.57954817277362
서울 종로구 명륜4가 98-1,PM9,약국,"의료,건강 > 약국",,22544622,02-766-9000,메디칼서울약국,http://place.map.kakao.com/22544622,서울 종로구 대학로9길 6,127.00152951100588,37.58180786366465
서울 종로구 명륜4가 144,PM9,약국,"의료,건강 > 약국",,9370791,02-763-3248,정민약국,http://place.map.kakao.com/9370791,서울 종로구 대학로9길 37,126.99999886786496,37.5819772603703
서울 종로구 사직동 9,PM9,약국,"의료,건강 > 약국",,638664246,02-733-9303,가람약국,http://place.map.kakao.com/638664246,서울 종로구 사직로8길 4,126.96968210930244,37.57470144354507
서울 종로구 신영동 105-30,PM9,약국,"의료,건강 > 약국",,306199841,02-394-3949,세검정약국,http://place.map.kakao.com/306199841,서울 종로구 세검정로6길 104,126.9618053121468,37.60161991539835
서울 종로구 당주동 100,PM9,약국,"의료,건강 > 약국",,18253454,02-3210-2292,세종약국,http://place.map.kakao.com/18253454,서울 종로구 세종대로23길 54,126.97291850299607,37.57175597702993
서울 종로구 돈의동 103-68,PM9,약국,"의료,건강 > 약국",,9428014,02-765-0473,진약국,http://place.map.kakao.com/9428014,서울 종로구 돈화문로9가길 20,126.991043722696,37.5721650923053
서울 종로구 묘동 20-5,PM9,약국,"의료,건강 > 약국",,58075430,02-511-8283,종로성지약국,http://place.map.kakao.com/58075430,서울 종로구 돈화문로 지하 30,126.99199470091352,37.571141630115804
서울 종로구 재동 92,PM9,약국,"의료,건강 > 약국",,1207630936,070-4647-0680,안국365약국,http://place.map.kakao.com/1207630936,서울 종로구 북촌로 2,126.98617524574533,37.577222806780355
서울 종로구 내자동 180,PM9,약국,"의료,건강 > 약국",,9010126,02-738-8816,민약국,http://place.map.kakao.com/9010126,서울 종로구 사직로12길 26,126.9708695197421,37.574916179249975
서울 종로구 적선동 80,PM9,약국,"의료,건강 > 약국",,13510300,02-720-5662,새현대약국,http://place.map.kakao.com/13510300,서울 종로구 사직로 130,126.97330435217633,37.575364549281446
서울 종로구 사직동 9,PM9,약국,"의료,건강 > 약국",,638664246,02-733-9303,가람약국,http://place.map.kakao.com/638664246,서울 종로구 사직로8길 4,126.96968210930244,37.57470144354507
서울 종로구 내자동 26,PM9,약국,"의료,건강 > 약국",,196142571,02-6326-2007,내자약국,http://place.map.kakao.com/196142571,서울 종로구 사직로 107,126.970761423654,37.57633161493
서울 종로구 청진동 215-1,PM9,약국,"의료,건강 > 약국",,150959828,02-723-0124,광화문123약국,http://place.map.kakao.com/150959828,서울 종로구 삼봉로 44,126.9796841787754,37.57238352677574
서울 종로구 수송동 68-1,PM9,약국,"의료,건강 > 약국",,781236921,02-733-5300,호수약국,http://place.map.kakao.com/781236921,서울 종로구 삼봉로 57,126.98045955056116,37.57254133179231
서울 종로구 청진동 41-2,PM9,약국,"의료,건강 > 약국",,18650613,02-739-3447,제일약국,http://place.map.kakao.com/18650613,서울 종로구 삼봉로 74,126.981286016426,37.5720954731464
서울 종로구 수송동 58,PM9,약국,"의료,건강 > 약국",,16526798,02-2198-5333,푸른소나무약국,http://place.map.kakao.com/16526798,서울 종로구 삼봉로 81,126.981797586992,37.5724523471755
서울 종로구 돈의동 103-68,PM9,약국,"의료,건강 > 약국",,9428014,02-765-0473,진약국,http://place.map.kakao.com/9428014,서울 종로구 돈화문로9가길 20,126.991043722696,37.5721650923053
서울 종로구 동숭동 130-65,PM9,약국,"의료,건강 > 약국",,16618563,02-762-4636,한독약국,http://place.map.kakao.com/16618563,서울 종로구 동숭길 52,127.00445599881427,37.58055450722302
서울 종로구 명륜1가 10-22,PM9,약국,"의료,건강 > 약국",,9049773,02-762-4125,보성온누리약국,http://place.map.kakao.com/9049773,서울 종로구 명륜길 22,126.995661286027,37.5883940534544
서울 종로구 내자동 180,PM9,약국,"의료,건강 > 약국",,9010126,02-738-8816,민약국,http://place.map.kakao.com/9010126,서울 종로구 사직로12길 26,126.9708695197421,37.574916179249975
서울 종로구 당주동 128-27,PM9,약국,"의료,건강 > 약국",,442725938,02-722-9859,메디팜삼현약국,http://place.map.kakao.com/442725938,서울 종로구 새문안로3길 15,126.97230272479,37.5717044774438
서울 종로구 내자동 219,PM9,약국,"의료,건강 > 약국",,1520494514,02-736-7980,한누리약국,http://place.map.kakao.com/1520494514,서울 종로구 새문안로5가길 33,126.97286533909144,37.57476799075145
서울 종로구 돈의동 103-68,PM9,약국,"의료,건강 > 약국",,9428014,02-765-0473,진약국,http://place.map.kakao.com/9428014,서울 종로구 돈화문로9가길 20,126.991043722696,37.5721650923053
서울 종로구 종로3가 20,PM9,약국,"의료,건강 > 약국",,97853138,02-743-1937,종로센트럴약국,http://place.map.kakao.com/97853138,서울 종로구 종로 127-2,126.991772883752,37.5706947212092
서울 종로구 낙원동 62-2,PM9,약국,"의료,건강 > 약국",,10667137,02-765-4808,은성약국,http://place.map.kakao.com/10667137,서울 종로구 삼일대로 434,126.98806754102344,37.57335053840949
서울 종로구 낙원동 210,PM9,약국,"의료,건강 > 약국",,22539971,02-765-4342,성당약국,http://place.map.kakao.com/22539971,서울 종로구 수표로 115,126.989056044586,37.5715486441064
서울 종로구 종로3가 10,PM9,약국,"의료,건강 > 약국",,439049127,02-764-6024,정약국,http://place.map.kakao.com/439049127,서울 종로구 종로 115,126.99046434411,37.5706081272171
서울 종로구 묘동 20-5,PM9,약국,"의료,건강 > 약국",,58075430,02-511-8283,종로성지약국,http://place.map.kakao.com/58075430,서울 종로구 돈화문로 지하 30,126.99199470091352,37.571141630115804
서울 종로구 종로3가 123,PM9,약국,"의료,건강 > 약국",,16527204,02-945-2636,신세계약국,http://place.map.kakao.com/16527204,서울 종로구 종로 124-1,126.99140053184429,37.57013517655942
서울 종로구 종로3가 123-2,PM9,약국,"의료,건강 > 약국",,8906887,02-2273-3233,동남약국,http://place.map.kakao.com/8906887,서울 종로구 종로 124,126.99125790899642,37.57010453224083
서울 종로구 종로3가 132-1,PM9,약국,"의료,건강 > 약국",,9189596,02-2274-6228,태평양약국,http://place.map.kakao.com/9189596,서울 종로구 수표로20길 43,126.99193142756192,37.5700568274372
서울 종로구 원남동 133-1,PM9,약국,"의료,건강 > 약국",,27245308,02-3672-3672,대학약국 원남점,http://place.map.kakao.com/27245308,서울 종로구 창경궁로 162,126.99743362788377,37.5767893091196
서울 종로구 종로3가 130,PM9,약국,"의료,건강 > 약국",,22297932,02-2263-9293,다나약국,http://place.map.kakao.com/22297932,서울 종로구 종로 128,126.99191783592869,37.570132510121276
서울 종로구 관훈동 37,PM9,약국,"의료,건강 > 약국",,8450060,02-732-3336,수도약국,http://place.map.kakao.com/8450060,서울 종로구 인사동길 40,126.985125322461,37.5740493763544
서울 종로구 원남동 118-1,PM9,약국,"의료,건강 > 약국",,10056868,02-3676-4411,한마음약국,http://place.map.kakao.com/10056868,서울 종로구 창경궁로 158,126.99748457739773,37.57658208150523
서울 종로구 원남동 128-1,PM9,약국,"의료,건강 > 약국",,10720027,02-765-7200,정문약국,http://place.map.kakao.com/10720027,서울 종로구 창경궁로 162-2,126.99766796099681,37.57687220546372
서울 종로구 원남동 135-1,PM9,약국,"의료,건강 > 약국",,10626358,02-741-0808,옥광약국,http://place.map.kakao.com/10626358,서울 종로구 창경궁로 162-1,126.99740758739793,37.576881209976634
서울 종로구 종로3가 132-1,PM9,약국,"의료,건강 > 약국",,9189596,02-2274-6228,태평양약국,http://place.map.kakao.com/9189596,서울 종로구 수표로20길 43,126.99193142756192,37.5700568274372
서울 종로구 숭인동 766,PM9,약국,"의료,건강 > 약국",,13565110,02-2242-3552,열린온누리약국,http://place.map.kakao.com/13565110,서울 종로구 숭인동길 21,127.02145210451484,37.57551248070047
서울 종로구 옥인동 170-3,PM9,약국,"의료,건강 > 약국",,13509556,02-738-9179,온누리우리약국,http://place.map.kakao.com/13509556,서울 종로구 옥인길 32-5,126.966788076553,37.5810986244373
서울 종로구 소격동 153,PM9,약국,"의료,건강 > 약국",,1264402530,02-720-8081,북촌약국,http://place.map.kakao.com/1264402530,서울 종로구 율곡로3길 71,126.98202247030657,37.57875393751818
서울 종로구 이화동 90-11,PM9,약국,"의료,건강 > 약국",,12186453,,새우리약국,http://place.map.kakao.com/12186453,서울 종로구 이화장길 30,127.004129739969,37.5767496210274
서울 종로구 낙원동 62-2,PM9,약국,"의료,건강 > 약국",,10667137,02-765-4808,은성약국,http://place.map.kakao.com/10667137,서울 종로구 삼일대로 434,126.98806754102344,37.57335053840949
서울 종로구 경운동 89-4,PM9,약국,"의료,건강 > 약국",,23447169,02-6283-8008,안국온누리약국,http://place.map.kakao.com/23447169,서울 종로구 삼일대로 461,126.98535931565685,37.575754988499256
서울 종로구 경운동 89-4,PM9,약국,"의료,건강 > 약국",,13502478,02-733-4774,남영약국,http://place.map.kakao.com/13502478,서울 종로구 삼일대로 461,126.98526644677055,37.57596580966146
서울 종로구 평동 222,PM9,약국,"의료,건강 > 약국",,2032988570,,디타워약국,http://place.map.kakao.com/2032988570,서울 종로구 통일로 134,126.966255639148,37.5667996863701
서울 종로구 무악동 67-2,PM9,약국,"의료,건강 > 약국",,884156542,02-733-9219,신정원약국,http://place.map.kakao.com/884156542,서울 종로구 통일로 262,126.957085647103,37.5754363520519
서울 종로구 무악동 42-2,PM9,약국,"의료,건강 > 약국",,13511205,02-363-8311,인성약국,http://place.map.kakao.com/13511205,서울 종로구 통일로 250,126.957947529082,37.5747203715303
서울 종로구 무악동 37-1,PM9,약국,"의료,건강 > 약국",,12725954,02-737-1543,명문약국,http://place.map.kakao.com/12725954,서울 종로구 통일로 254,126.9576802468,37.5749401187025
서울 종로구 무악동 82,PM9,약국,"의료,건강 > 약국",,9641383,02-725-6569,현대약국,http://place.map.kakao.com/9641383,서울 종로구 통일로 246-10,126.95910239945756,37.57434596348932
서울 종로구 종로5가 182-4,PM9,약국,"의료,건강 > 약국",,8536536,02-2263-9666,유성약국,http://place.map.kakao.com/8536536,서울 종로구 동호로 408,127.00222770653387,37.57072381870739
서울 종로구 종로5가 138-19,PM9,약국,"의료,건강 > 약국",,27403009,02-2285-1055,새동서약국,http://place.map.kakao.com/27403009,서울 종로구 동호로 403,127.00169228115504,37.57045533098874
서울 종로구 신문로1가 1,PM9,약국,"의료,건강 > 약국",,1890761796,02-739-8744,삼원온누리약국,http://place.map.kakao.com/1890761796,서울 종로구 새문안로 103-1,126.976183539916,37.570481772624
서울 종로구 평동 166,PM9,약국,"의료,건강 > 약국",,670923565,02-734-9600,늘푸른약국,http://place.map.kakao.com/670923565,서울 종로구 새문안로 17,126.9676951446577,37.567443400055275
서울 종로구 신문로1가 34,PM9,약국,"의료,건강 > 약국",,1904915757,02-735-0709,당근약국,http://place.map.kakao.com/1904915757,서울 종로구 새문안로 83,126.973973970369,37.5704290484631
서울 종로구 평동 178,PM9,약국,"의료,건강 > 약국",,10134113,02-733-7870,건강한세상약국,http://place.map.kakao.com/10134113,서울 종로구 새문안로 21,126.96796904375277,37.56750023741853
서울 종로구 평동 180,PM9,약국,"의료,건강 > 약국",,1874244144,02-723-0890,삼정김약국,http://place.map.kakao.com/1874244144,서울 종로구 새문안로 19,126.967898893976,37.5674326436825
서울 종로구 신문로1가 33,PM9,약국,"의료,건강 > 약국",,688863315,02-735-2870,새명성약국,http://place.map.kakao.com/688863315,서울 종로구 새문안로 85,126.974155109518,37.5703552066396
서울 종로구 내자동 219,PM9,약국,"의료,건강 > 약국",,1520494514,02-736-7980,한누리약국,http://place.map.kakao.com/1520494514,서울 종로구 새문안로5가길 33,126.97286533909144,37.57476799075145
서울 종로구 당주동 128-27,PM9,약국,"의료,건강 > 약국",,442725938,02-722-9859,메디팜삼현약국,http://place.map.kakao.com/442725938,서울 종로구 새문안로3길 15,126.97230272479,37.5717044774438
서울 종로구 신문로1가 24,PM9,약국,"의료,건강 > 약국",,23345555,02-737-5035,올리브약국,http://place.map.kakao.com/23345555,서울 종로구 새문안로 91,126.97479801427,37.5704977028959
서울 종로구 신문로1가 25,PM9,약국,"의료,건강 > 약국",,494685157,,광화문이층약국,http://place.map.kakao.com/494685157,서울 종로구 새문안로 89,126.974513899999,37.5704742160246
서울 종로구 신문로1가 25,PM9,약국,"의료,건강 > 약국",,1336024901,02-736-7156,이순신약국,http://place.map.kakao.com/1336024901,서울 종로구 새문안로 89,126.974513899999,37.5704742160246
서울 종로구 신영동 105-30,PM9,약국,"의료,건강 > 약국",,306199841,02-394-3949,세검정약국,http://place.map.kakao.com/306199841,서울 종로구 세검정로6길 104,126.9618053121468,37.60161991539835
서울 종로구 종로3가 132-1,PM9,약국,"의료,건강 > 약국",,9189596,02-2274-6228,태평양약국,http://place.map.kakao.com/9189596,서울 종로구 수표로20길 43,126.99193142756192,37.5700568274372
서울 종로구 낙원동 210,PM9,약국,"의료,건강 > 약국",,22539971,02-765-4342,성당약국,http://place.map.kakao.com/22539971,서울 종로구 수표로 115,126.989056044586,37.5715486441064
서울 종로구 관수동 17-1,PM9,약국,"의료,건강 > 약국",,13510615,02-2267-8830,보생당약국,http://place.map.kakao.com/13510615,서울 종로구 수표로 92,126.98964157638162,37.56938540711443
서울 종로구 창신동 266-1,PM9,약국,"의료,건강 > 약국",,832762017,02-741-9737,봄약국,http://place.map.kakao.com/832762017,서울 종로구 지봉로 37-1,127.015336377802,37.5732600457873
서울 종로구 창신동 243,PM9,약국,"의료,건강 > 약국",,10071139,02-763-4197,이약국,http://place.map.kakao.com/10071139,서울 종로구 지봉로 43,127.01544408052446,37.57404660025165
서울 종로구 숭인동 56-42,PM9,약국,"의료,건강 > 약국",,9205888,02-765-5885,숭인다모아약국,http://place.map.kakao.com/9205888,서울 종로구 지봉로8길 54,127.015753676918,37.5766873744829
서울 종로구 창신동 25-4,PM9,약국,"의료,건강 > 약국",,13505425,02-743-2062,성심약국,http://place.map.kakao.com/13505425,서울 종로구 지봉로 61,127.0154840088572,37.575533236239046
서울 종로구 숭인동 81-15,PM9,약국,"의료,건강 > 약국",,16818425,02-745-0731,단골온누리약국,http://place.map.kakao.com/16818425,서울 종로구 지봉로 50,127.01594113265284,37.574504239514795
서울 종로구 창신동 264,PM9,약국,"의료,건강 > 약국",,1850209834,02-747-4541,친절한두산약국,http://place.map.kakao.com/1850209834,서울 종로구 지봉로 39-1,127.015450775073,37.5735744780861