address_name,category_group_code,category_group_name,category_name,distance,id,phone,place_name,place_url,road_address_name,x,y
서울 동대문구 신설동 103-1,PM9,약국,"의료,건강 > 약국",,8949935,02-2231-9196,드림약국,http://place.map.kakao.com/8949935,서울 동대문구 천호대로 8,127.02435555516483,37.574822656508225
서울 동대문구 답십리동 465-24,PM9,약국,"의료,건강 > 약국",,9046122,02-2217-3606,복지약국,http://place.map.kakao.com/9046122,서울 동대문구 천호대로 227,127.048103859927,37.5705518602285
서울 동대문구 장안동 423-3,PM9,약국,"의료,건강 > 약국",,13500660,02-422-5060,맑은샘약국,http://place.map.kakao.com/13500660,서울 동대문구 천호대로83길 39,127.06519529229767,37.56398801424641
서울 동대문구 답십리동 496-2,PM9,약국,"의료,건강 > 약국",,233119626,02-6949-5444,두드림온누리약국,http://place.map.kakao.com/233119626,서울 동대문구 천호대로 267,127.05155922435395,37.56816186285233
서울 동대문구 용두동 122-52,PM9,약국,"의료,건강 > 약국",,10524365,02-923-3600,아파트약국,http://place.map.kakao.com/10524365,서울 동대문구 천호대로 72,127.03142118893905,37.57368753595704
서울 동대문구 장안동 424-9,PM9,약국,"의료,건강 > 약국",,516273501,02-2244-1437,보명약국,http://place.map.kakao.com/516273501,서울 동대문구 천호대로79길 66,127.0644378604737,37.565051605484825
서울 동대문구 용두동 100-1,PM9,약국,"의료,건강 > 약국",,16415172,02-3493-6912,청수약국,http://place.map.kakao.com/16415172,서울 동대문구 천호대로25길 81,127.03395310261833,37.577811587718756
서울 동대문구 답십리동 492-4,PM9,약국,"의료,건강 > 약국",,16557022,02-2244-2131,늘좋은약국,http://place.map.kakao.com/16557022,서울 동대문구 천호대로 319,127.055973472496,37.5647856230669
서울 동대문구 답십리동 494-2,PM9,약국,"의료,건강 > 약국",,16057451,02-2214-0205,유한약국,http://place.map.kakao.com/16057451,서울 동대문구 천호대로 295,127.053683787324,37.5664985787732
서울 동대문구 장안동 465-1,PM9,약국,"의료,건강 > 약국",,16648740,02-2244-7491,금신당약국,http://place.map.kakao.com/16648740,서울 동대문구 천호대로 427-4,127.066736137936,37.561877019894276
서울 동대문구 장안동 464-7,PM9,약국,"의료,건강 > 약국",,13103980,02-2245-3015,4층현약국,http://place.map.kakao.com/13103980,서울 동대문구 천호대로 425,127.06631934494091,37.56156190596421
서울 동대문구 답십리동 493-5,PM9,약국,"의료,건강 > 약국",,16414325,02-2247-5029,참이화약국,http://place.map.kakao.com/16414325,서울 동대문구 천호대로 307,127.05476197577251,37.565798009767036
서울 동대문구 용두동 112-22,PM9,약국,"의료,건강 > 약국",,2032071194,02-962-7244,동안메디약국,http://place.map.kakao.com/2032071194,서울 동대문구 천호대로17길 75,127.03215407469716,37.57742646592278
서울 동대문구 답십리동 492-1,PM9,약국,"의료,건강 > 약국",,17810566,02-3394-4882,가까운약국,http://place.map.kakao.com/17810566,서울 동대문구 천호대로 313,127.05524388529676,37.56542477291642
서울 동대문구 답십리동 496-4,PM9,약국,"의료,건강 > 약국",,68447231,02-2212-0034,하나약국,http://place.map.kakao.com/68447231,서울 동대문구 천호대로 273,127.052050253675,37.5678363879644
서울 동대문구 장안동 142-8,PM9,약국,"의료,건강 > 약국",,13509308,02-2245-6384,국제약국,http://place.map.kakao.com/13509308,서울 동대문구 답십리로 248,127.06775193265139,37.57247395262934
서울 동대문구 장안동 370-1,PM9,약국,"의료,건강 > 약국",,8353997,02-2214-3455,새린 온누리약국,http://place.map.kakao.com/8353997,서울 동대문구 답십리로 266,127.069888965432,37.5722961118345
서울 동대문구 장안동 331-3,PM9,약국,"의료,건강 > 약국",,201602070,02-2212-6275,장안미소약국,http://place.map.kakao.com/201602070,서울 동대문구 답십리로 305,127.0744498258958,37.572376215198766
서울 동대문구 전농동 622-1,PM9,약국,"의료,건강 > 약국",,71012910,02-3295-5458,봄날약국,http://place.map.kakao.com/71012910,서울 동대문구 답십리로 9,127.04315512331883,37.57874741821371
서울 동대문구 장안동 294-12,PM9,약국,"의료,건강 > 약국",,13084157,02-2215-6388,튼튼하나약국,http://place.map.kakao.com/13084157,서울 동대문구 답십리로 259,127.06899621283901,37.572714698592755
서울 동대문구 장안동 394-11,PM9,약국,"의료,건강 > 약국",,10907689,02-2245-2611,행복한약국,http://place.map.kakao.com/10907689,서울 동대문구 답십리로66길 95,127.066218045109,37.5685933357309
서울 동대문구 장안동 143-8,PM9,약국,"의료,건강 > 약국",,2085024661,02-6956-7790,정담은약국,http://place.map.kakao.com/2085024661,서울 동대문구 답십리로 250,127.06788548543678,37.572449549045345
서울 동대문구 장안동 295-6,PM9,약국,"의료,건강 > 약국",,501637011,02-3394-9401,체리약국,http://place.map.kakao.com/501637011,서울 동대문구 답십리로 267,127.07009312093,37.5727203593757
서울 동대문구 답십리동 36-18,PM9,약국,"의료,건강 > 약국",,10046235,02-2212-7582,홍약국,http://place.map.kakao.com/10046235,서울 동대문구 답십리로48가길 46,127.05791493930923,37.571023180327444
서울 동대문구 답십리동 990,PM9,약국,"의료,건강 > 약국",,1953878184,02-2213-7588,참사랑온누리약국,http://place.map.kakao.com/1953878184,서울 동대문구 답십리로56길 21,127.05952989209638,37.57056196849622
서울 동대문구 전농동 648-68,PM9,약국,"의료,건강 > 약국",,1866914887,02-2214-3535,삼오약국,http://place.map.kakao.com/1866914887,서울 동대문구 답십리로 64,127.04808100593354,37.57550013338463
서울 동대문구 전농동 622-1,PM9,약국,"의료,건강 > 약국",,13511634,02-967-0117,민중약국,http://place.map.kakao.com/13511634,서울 동대문구 답십리로 9,127.043318057031,37.5785977935286
서울 동대문구 장안동 307-6,PM9,약국,"의료,건강 > 약국",,1620881407,02-2216-4333,다온약국,http://place.map.kakao.com/1620881407,서울 동대문구 답십리로 273,127.07080389207455,37.572591993957175
서울 동대문구 답십리동 1003,PM9,약국,"의료,건강 > 약국",,25974507,070-4216-9844,답십리코코약국,http://place.map.kakao.com/25974507,서울 동대문구 답십리로 130,127.05146344967373,37.57209024417211
서울 동대문구 답십리동 1003-2,PM9,약국,"의료,건강 > 약국",,996307675,02-3394-5102,한성약국,http://place.map.kakao.com/996307675,서울 동대문구 답십리로 140,127.05561363919736,37.57253615652481
서울 동대문구 용두동 27-5,PM9,약국,"의료,건강 > 약국",,13502694,02-962-1161,마장백화점약국,http://place.map.kakao.com/13502694,서울 동대문구 고산자로 410,127.03847709724238,37.57606857784852
서울 동대문구 용두동 40-13,PM9,약국,"의료,건강 > 약국",,13511997,02-962-1197,뉴프라자약국,http://place.map.kakao.com/13511997,서울 동대문구 고산자로 399,127.03789252355298,37.57520381221094
서울 동대문구 용두동 39-906,PM9,약국,"의료,건강 > 약국",,13512970,02-965-7162,동대문보건약국,http://place.map.kakao.com/13512970,서울 동대문구 고산자로28가길 2,127.040313816661,37.5749732565652
서울 동대문구 제기동 1019,PM9,약국,"의료,건강 > 약국",,13500894,02-967-6217,경원약국,http://place.map.kakao.com/13500894,서울 동대문구 고산자로36길 3,127.03950552076671,37.5792073019406
서울 동대문구 제기동 1050,PM9,약국,"의료,건강 > 약국",,16499781,02-969-6054,제중건재약국,http://place.map.kakao.com/16499781,서울 동대문구 고산자로 435,127.03804482527774,37.57862664060736
서울 동대문구 제기동 1212,PM9,약국,"의료,건강 > 약국",,13512037,02-966-4487,신도약국,http://place.map.kakao.com/13512037,서울 동대문구 고산자로 534,127.03804255584433,37.58751584190104
서울 동대문구 제기동 992-37,PM9,약국,"의료,건강 > 약국",,1460225939,02-957-9981,우리약국,http://place.map.kakao.com/1460225939,서울 동대문구 고산자로38길 18,127.039582750943,37.5798893284534
서울 동대문구 용두동 39-695,PM9,약국,"의료,건강 > 약국",,13503744,02-963-0617,흥명약국,http://place.map.kakao.com/13503744,서울 동대문구 고산자로30길 56,127.041323863111,37.5754738602945
서울 동대문구 제기동 900,PM9,약국,"의료,건강 > 약국",,13505318,02-967-6741,동암당약국,http://place.map.kakao.com/13505318,서울 동대문구 고산자로44길 2,127.03893208964479,37.58241863403621
서울 동대문구 제기동 1067,PM9,약국,"의료,건강 > 약국",,16586995,,태평양약국,http://place.map.kakao.com/16586995,서울 동대문구 고산자로 451,127.03817687893888,37.58006007932913
서울 동대문구 제기동 1019,PM9,약국,"의료,건강 > 약국",,13505413,02-960-5009,한진당약국,http://place.map.kakao.com/13505413,서울 동대문구 고산자로36길 3,127.03941391195907,37.57937942240569
서울 동대문구 제기동 1067,PM9,약국,"의료,건강 > 약국",,16734263,,장안당약국,http://place.map.kakao.com/16734263,서울 동대문구 고산자로 451,127.038174619788,37.5800699909918
서울 동대문구 제기동 1019,PM9,약국,"의료,건강 > 약국",,13512040,02-964-7482,성우당약국,http://place.map.kakao.com/13512040,서울 동대문구 고산자로36길 3,127.03914316237808,37.579038035785096
서울 동대문구 휘경동 276-45,PM9,약국,"의료,건강 > 약국",,10026232,02-2217-7682,크로바약국,http://place.map.kakao.com/10026232,서울 동대문구 망우로 80,127.062369001018,37.5897399562135
서울 동대문구 휘경동 275-5,PM9,약국,"의료,건강 > 약국",,2108248234,02-2243-0330,삼육정문약국,http://place.map.kakao.com/2108248234,서울 동대문구 망우로 86,127.062841413705,37.5900532509465
서울 동대문구 휘경동 276-57,PM9,약국,"의료,건강 > 약국",,9959873,02-2213-5005,메디팜사랑약국,http://place.map.kakao.com/9959873,서울 동대문구 망우로18길 6,127.062310042795,37.5896426801869
서울 동대문구 휘경동 276-49,PM9,약국,"의료,건강 > 약국",,11194584,02-2212-0612,우리들위생약국,http://place.map.kakao.com/11194584,서울 동대문구 망우로 78,127.062084834214,37.58977434372877
서울 동대문구 휘경동 286-121,PM9,약국,"의료,건강 > 약국",,9763255,02-2246-7471,명약국,http://place.map.kakao.com/9763255,서울 동대문구 망우로18나길 3,127.060573574534,37.5873478552976
서울 동대문구 휘경동 269-9,PM9,약국,"의료,건강 > 약국",,11485194,02-3394-4865,한가람약국,http://place.map.kakao.com/11485194,서울 동대문구 망우로 77,127.06174213533718,37.59022682158168
서울 동대문구 휘경동 286-230,PM9,약국,"의료,건강 > 약국",,20458487,02-909-3636,넘버원삼육약국,http://place.map.kakao.com/20458487,서울 동대문구 망우로18길 26,127.062667102705,37.5887703305721
서울 동대문구 휘경동 71-1,PM9,약국,"의료,건강 > 약국",,19801914,02-2217-5060,메디칼갑산약국,http://place.map.kakao.com/19801914,서울 동대문구 망우로 123,127.066650642251,37.5916765511551
서울 동대문구 휘경동 254,PM9,약국,"의료,건강 > 약국",,16792589,02-2245-9388,영림약국,http://place.map.kakao.com/16792589,서울 동대문구 망우로21길 16,127.06232547279379,37.59049501067131
서울 동대문구 휘경동 112-49,PM9,약국,"의료,건강 > 약국",,16499176,02-2245-2636,중량약국,http://place.map.kakao.com/16499176,서울 동대문구 망우로 131,127.06743091487182,37.59182116767534
서울 동대문구 휘경동 112-49,PM9,약국,"의료,건강 > 약국",,1714415867,,중랑약국,http://place.map.kakao.com/1714415867,서울 동대문구 망우로 131,127.06742753996927,37.59184549638509
서울 동대문구 용두동 127-15,PM9,약국,"의료,건강 > 약국",,15837734,02-926-6969,신상록수약국,http://place.map.kakao.com/15837734,서울 동대문구 무학로26길 5,127.03119242909351,37.573462347907245
서울 동대문구 용두동 193-78,PM9,약국,"의료,건강 > 약국",,13507161,02-927-9125,어깨동무약국,http://place.map.kakao.com/13507161,서울 동대문구 무학로 189,127.029584671453,37.5812653720731
서울 동대문구 용두동 118-99,PM9,약국,"의료,건강 > 약국",,13513179,02-921-3212,동부대학약국,http://place.map.kakao.com/13513179,서울 동대문구 무학로 122,127.030841026214,37.5750409830141
서울 동대문구 용두동 119-47,PM9,약국,"의료,건강 > 약국",,16676655,02-922-7627,동부메디칼약국,http://place.map.kakao.com/16676655,서울 동대문구 무학로 128,127.03076653391057,37.57557979720625
서울 동대문구 용두동 102-21,PM9,약국,"의료,건강 > 약국",,16620265,,피에스팜,http://place.map.kakao.com/16620265,서울 동대문구 무학로28길 53-5,127.033711805201,37.5749320787606
서울 동대문구 장안동 102-1,PM9,약국,"의료,건강 > 약국",,10794524,02-2242-2182,종로프라자약국,http://place.map.kakao.com/10794524,서울 동대문구 사가정로 226,127.07009181884244,37.57857772461261
서울 동대문구 전농동 295-16,PM9,약국,"의료,건강 > 약국",,16042999,02-2244-7790,우진당약국,http://place.map.kakao.com/16042999,서울 동대문구 사가정로13길 3,127.05797927164316,37.5780788374865
서울 동대문구 답십리동 1012,PM9,약국,"의료,건강 > 약국",,395449083,02-2249-9111,바른약국,http://place.map.kakao.com/395449083,서울 동대문구 사가정로 80,127.054940950621,37.5752295447131
서울 동대문구 전농동 10,PM9,약국,"의료,건강 > 약국",,13510707,02-2214-4783,SK약국,http://place.map.kakao.com/13510707,서울 동대문구 사가정로 148,127.060832821085,37.5775701418043
서울 동대문구 장안동 93-10,PM9,약국,"의료,건강 > 약국",,16040981,02-2212-8941,메디팜경애약국,http://place.map.kakao.com/16040981,서울 동대문구 사가정로25길 18,127.07058975328027,37.579583838042254
서울 동대문구 장안동 107-8,PM9,약국,"의료,건강 > 약국",,1411253703,02-2242-6070,장안메디칼약국,http://place.map.kakao.com/1411253703,서울 동대문구 사가정로 207,127.0679931741566,37.57883933929157
서울 동대문구 전농동 295-74,PM9,약국,"의료,건강 > 약국",,89366465,02-2216-0878,라이프약국,http://place.map.kakao.com/89366465,서울 동대문구 사가정로 111-1,127.0571919726827,37.5774169908668
서울 동대문구 장안동 108-15,PM9,약국,"의료,건강 > 약국",,10709971,02-2245-3241,우량아약국,http://place.map.kakao.com/10709971,서울 동대문구 사가정로 214,127.068586006617,37.5784236381394
서울 동대문구 전농동 10,PM9,약국,"의료,건강 > 약국",,10791920,02-3394-7544,조은약국,http://place.map.kakao.com/10791920,서울 동대문구 사가정로 148,127.05897837903186,37.577425121817924
서울 동대문구 전농동 32-4,PM9,약국,"의료,건강 > 약국",,16044462,02-2244-7003,수온누리약국,http://place.map.kakao.com/16044462,서울 동대문구 사가정로 122,127.058554787556,37.5771712523298
서울 동대문구 전농동 295-81,PM9,약국,"의료,건강 > 약국",,13510738,02-2213-6769,하은약국,http://place.map.kakao.com/13510738,서울 동대문구 사가정로 110,127.05731396296926,37.57706103899538
서울 동대문구 전농동 10,PM9,약국,"의료,건강 > 약국",,16329645,02-3394-7543,엄마손약국,http://place.map.kakao.com/16329645,서울 동대문구 사가정로 148,127.05895125776063,37.57748640296739
서울 동대문구 전농동 10,PM9,약국,"의료,건강 > 약국",,9179882,02-2212-1931,신행당약국,http://place.map.kakao.com/9179882,서울 동대문구 사가정로 148,127.05900212397093,37.57738907018585
서울 동대문구 전농동 10,PM9,약국,"의료,건강 > 약국",,16413941,02-2245-9400,SK행복약국,http://place.map.kakao.com/16413941,서울 동대문구 사가정로 148,127.05898627861473,37.5773935830753
서울 동대문구 장안동 99-13,PM9,약국,"의료,건강 > 약국",,22809054,02-2212-8881,명문온누리약국,http://place.map.kakao.com/22809054,서울 동대문구 사가정로 225,127.0701612368877,37.57896240777076
서울 동대문구 제기동 137-22,PM9,약국,"의료,건강 > 약국",,770396702,02-923-3338,대학솔약국,http://place.map.kakao.com/770396702,서울 동대문구 안암로 158,127.035304234528,37.588608695719
서울 동대문구 답십리동 16-15,PM9,약국,"의료,건강 > 약국",,9010700,02-2245-7948,민성약국,http://place.map.kakao.com/9010700,서울 동대문구 한천로11길 32,127.06050742962,37.5671728275927
서울 동대문구 답십리동 902,PM9,약국,"의료,건강 > 약국",,11209734,02-2213-3831,한유약국,http://place.map.kakao.com/11209734,서울 동대문구 한천로 89,127.06390850760197,37.5694550591725
서울 동대문구 장안동 188-8,PM9,약국,"의료,건강 > 약국",,16041390,02-2248-7588,진선미약국,http://place.map.kakao.com/16041390,서울 동대문구 한천로 86,127.06415839845403,37.56914137724131
서울 동대문구 장안동 432-4,PM9,약국,"의료,건강 > 약국",,1224191621,02-3394-8432,초록약국,http://place.map.kakao.com/1224191621,서울 동대문구 한천로2길 107,127.06452050021018,37.562441374280375
서울 동대문구 답십리동 12-18,PM9,약국,"의료,건강 > 약국",,8973881,02-2243-6837,메디팜동아약국,http://place.map.kakao.com/8973881,서울 동대문구 한천로 55,127.06193793149272,37.56689097510259
서울 동대문구 장안동 107-5,PM9,약국,"의료,건강 > 약국",,1856361734,02-2215-1101,바하약국,http://place.map.kakao.com/1856361734,서울 동대문구 한천로 195,127.068092383438,37.5783842801691
서울 동대문구 장안동 413-1,PM9,약국,"의료,건강 > 약국",,16708219,070-8242-8579,우리약국,http://place.map.kakao.com/16708219,서울 동대문구 한천로 4,127.058539421199,37.5633247648101
서울 동대문구 전농동 1-205,PM9,약국,"의료,건강 > 약국",,11041856,02-438-1314,감초당온누리약국,http://place.map.kakao.com/11041856,서울 동대문구 한천로 242,127.06863048720898,37.582482588690404
서울 동대문구 답십리동 13-19,PM9,약국,"의료,건강 > 약국",,10188324,02-966-3054,남지약국,http://place.map.kakao.com/10188324,서울 동대문구 한천로11길 43,127.05992881988034,37.566919041921466
서울 동대문구 장안동 150-3,PM9,약국,"의료,건강 > 약국",,16042697,02-2242-1559,오렌지약국,http://place.map.kakao.com/16042697,서울 동대문구 한천로 120,127.06604207654875,37.57185143304991
서울 동대문구 이문동 64,PM9,약국,"의료,건강 > 약국",,13512962,02-960-4773,이룸약국,http://place.map.kakao.com/13512962,서울 동대문구 한천로58길 47,127.06834292623797,37.60105940697106
서울 동대문구 장안동 118-38,PM9,약국,"의료,건강 > 약국",,16062667,02-2212-9838,해동그랜드약국,http://place.map.kakao.com/16062667,서울 동대문구 한천로 186,127.068240995707,37.5774832003134
서울 동대문구 장안동 93-86,PM9,약국,"의료,건강 > 약국",,10069815,02-2217-5861,이웃사랑약국,http://place.map.kakao.com/10069815,서울 동대문구 한천로46길 56-4,127.07136833504245,37.58163943732368
서울 동대문구 회기동 108-3,PM9,약국,"의료,건강 > 약국",,8653872,02-968-4445,경희중앙약국,http://place.map.kakao.com/8653872,서울 동대문구 경희대로 19-9,127.05202936797538,37.59313179581643
서울 동대문구 회기동 36-3,PM9,약국,"의료,건강 > 약국",,8754796,02-966-5830,경희메디칼약국,http://place.map.kakao.com/8754796,서울 동대문구 경희대로 24,127.05282457495717,37.59359815632781
서울 동대문구 회기동 36-7,PM9,약국,"의료,건강 > 약국",,8510504,02-957-6257,경희정문약국,http://place.map.kakao.com/8510504,서울 동대문구 경희대로 22-1,127.05286640543767,37.59350623644426
서울 동대문구 회기동 108-15,PM9,약국,"의료,건강 > 약국",,12018963,02-6013-1665,경희고황약국,http://place.map.kakao.com/12018963,서울 동대문구 경희대로 17,127.052475562002,37.5932262024235
서울 동대문구 회기동 108-17,PM9,약국,"의료,건강 > 약국",,310713536,02-6405-7771,허브약국,http://place.map.kakao.com/310713536,서울 동대문구 경희대로 19-3,127.052353278114,37.5932334646603
서울 동대문구 회기동 39-3,PM9,약국,"의료,건강 > 약국",,12606409,02-960-0557,경희동문약국,http://place.map.kakao.com/12606409,서울 동대문구 경희대로 19,127.05253906989365,37.593366728885464
서울 동대문구 회기동 42-10,PM9,약국,"의료,건강 > 약국",,13507159,02-3295-0055,경희온누리약국,http://place.map.kakao.com/13507159,서울 동대문구 경희대로1가길 32,127.05175073956802,37.59301388838428
서울 동대문구 회기동 39-4,PM9,약국,"의료,건강 > 약국",,1569914229,02-9638-1134,경희우리약국,http://place.map.kakao.com/1569914229,서울 동대문구 경희대로 21,127.05248254944937,37.59350190279099
서울 동대문구 회기동 42-15,PM9,약국,"의료,건강 > 약국",,9081020,02-964-2199,새경희약국,http://place.map.kakao.com/9081020,서울 동대문구 경희대로1가길 27,127.051506192191,37.5930572429583
서울 동대문구 회기동 16-52,PM9,약국,"의료,건강 > 약국",,758401473,02-965-1055,행복나무한약국,http://place.map.kakao.com/758401473,서울 동대문구 경희대로 6-1,127.05260502554147,37.59215846945424
서울 동대문구 회기동 108-6,PM9,약국,"의료,건강 > 약국",,27334298,02-6403-1082,경희제일약국,http://place.map.kakao.com/27334298,서울 동대문구 경희대로 19-5,127.0522219533885,37.59326595854018
서울 동대문구 전농동 648-13,PM9,약국,"의료,건강 > 약국",,9108146,02-2212-2785,서생당약국,http://place.map.kakao.com/9108146,서울 동대문구 서울시립대로 42,127.046983759041,37.5750176421127
서울 동대문구 전농동 568-7,PM9,약국,"의료,건강 > 약국",,16938769,02-2213-7967,오로라온누리약국,http://place.map.kakao.com/16938769,서울 동대문구 서울시립대로 92,127.050133385736,37.5788726020257
서울 동대문구 전농동 582-5,PM9,약국,"의료,건강 > 약국",,9105654,02-2212-1581,새성수약국,http://place.map.kakao.com/9105654,서울 동대문구 서울시립대로 116,127.05163356263391,37.580744220549214
서울 동대문구 전농동 648-1,PM9,약국,"의료,건강 > 약국",,1051873260,02-2246-1002,정성약국,http://place.map.kakao.com/1051873260,서울 동대문구 서울시립대로 50,127.04759096596557,37.57570756068686
서울 동대문구 전농동 645-2,PM9,약국,"의료,건강 > 약국",,16043225,02-2214-7937,동아약국,http://place.map.kakao.com/16043225,서울 동대문구 서울시립대로 31,127.045751628266,37.5742288547616
서울 동대문구 이문동 237-137,PM9,약국,"의료,건강 > 약국",,19331908,02-967-3025,이문우량아약국,http://place.map.kakao.com/19331908,서울 동대문구 신이문로 27,127.06528835870289,37.603170354647716
서울 동대문구 이문동 237-2,PM9,약국,"의료,건강 > 약국",,13508810,02-967-8806,코끼리약국,http://place.map.kakao.com/13508810,서울 동대문구 신이문로24길 4,127.066311813678,37.6028490315269
서울 동대문구 이문동 220-202,PM9,약국,"의료,건강 > 약국",,8604174,02-969-0976,한사랑온누리약국,http://place.map.kakao.com/8604174,서울 동대문구 신이문로 41,127.06672204723574,37.60316955283367
서울 동대문구 제기동 1152-12,PM9,약국,"의료,건강 > 약국",,11017238,02-928-6985,금창약국,http://place.map.kakao.com/11017238,서울 동대문구 약령시로 3,127.03012191757327,37.582802331192624
서울 동대문구 청량리동 687,PM9,약국,"의료,건강 > 약국",,11784235,02-964-0168,한국약국,http://place.map.kakao.com/11784235,서울 동대문구 약령시로 123,127.0435822593741,37.583214387912456
서울 동대문구 제기동 1193,PM9,약국,"의료,건강 > 약국",,13511685,02-963-6919,평제약국,http://place.map.kakao.com/13511685,서울 동대문구 약령시로 51,127.035785021301,37.5830151866809
서울 동대문구 청량리동 691,PM9,약국,"의료,건강 > 약국",,10722150,02-965-9114,제일성모약국,http://place.map.kakao.com/10722150,서울 동대문구 약령시로 126,127.044004399882,37.5829547452157
서울 동대문구 제기동 838-20,PM9,약국,"의료,건강 > 약국",,13508647,02-967-8145,남진약국,http://place.map.kakao.com/13508647,서울 동대문구 약령시로 86-1,127.03949384742859,37.58282659744994
서울 동대문구 청량리동 225-4,PM9,약국,"의료,건강 > 약국",,9069048,02-969-7524,우리보강약국,http://place.map.kakao.com/9069048,서울 동대문구 약령시로 133,127.044760936855,37.5833905415397
서울 동대문구 제기동 1140-1,PM9,약국,"의료,건강 > 약국",,1253674406,,세림약국,http://place.map.kakao.com/1253674406,서울 동대문구 약령중앙로 17-1,127.036868087782,37.5799046234112
서울 동대문구 제기동 1140-32,PM9,약국,"의료,건강 > 약국",,291491781,02-963-1174,감초당약국,http://place.map.kakao.com/291491781,서울 동대문구 약령중앙로 11,127.03677496814,37.5793208084103
서울 동대문구 제기동 1124-1,PM9,약국,"의료,건강 > 약국",,27262527,02-962-2092,새한약국,http://place.map.kakao.com/27262527,서울 동대문구 약령중앙로 10-5,127.03727531173224,37.57923595804719
서울 동대문구 제기동 890-17,PM9,약국,"의료,건강 > 약국",,209547035,02-968-0797,성부당약국,http://place.map.kakao.com/209547035,서울 동대문구 약령중앙로 31-1,127.036975152472,37.58121283285
서울 동대문구 제기동 1109-6,PM9,약국,"의료,건강 > 약국",,10677394,02-962-8600,유원당약국,http://place.map.kakao.com/10677394,서울 동대문구 약령중앙로4길 9,127.03768548780799,37.57994671200217
서울 동대문구 제기동 1115-12,PM9,약국,"의료,건강 > 약국",,2031661994,02-965-2069,현지당약국,http://place.map.kakao.com/2031661994,서울 동대문구 약령중앙로4길 4,127.03724615826764,37.57979998943895
서울 동대문구 제기동 1115-12,PM9,약국,"의료,건강 > 약국",,1599107416,,조은약국,http://place.map.kakao.com/1599107416,서울 동대문구 약령중앙로4길 4,127.037246158268,37.579799989439
서울 동대문구 제기동 886-18,PM9,약국,"의료,건강 > 약국",,8998800,,무림약국,http://place.map.kakao.com/8998800,서울 동대문구 약령중앙로 55,127.037193563608,37.5833102770939
서울 동대문구 제기동 982-3,PM9,약국,"의료,건강 > 약국",,12059545,,장한약업사,http://place.map.kakao.com/12059545,서울 동대문구 약령중앙로 30,127.037228615284,37.5809460590641
서울 동대문구 제기동 890-19,PM9,약국,"의료,건강 > 약국",,13512241,,엘림당약국,http://place.map.kakao.com/13512241,서울 동대문구 약령중앙로 31,127.036984163107,37.5811191266924
서울 동대문구 제기동 950-2,PM9,약국,"의료,건강 > 약국",,895210320,02-968-4949,아산당약국,http://place.map.kakao.com/895210320,서울 동대문구 약령중앙로10길 3,127.03753393334298,37.58249567132868
서울 동대문구 제기동 889-15,PM9,약국,"의료,건강 > 약국",,24662107,02-957-5001,원보당약국,http://place.map.kakao.com/24662107,서울 동대문구 약령중앙로 41,127.03698002856945,37.581915606337155
서울 동대문구 제기동 982-3,PM9,약국,"의료,건강 > 약국",,9841538,,보혜당약국,http://place.map.kakao.com/9841538,서울 동대문구 약령중앙로 30,127.037264861062,37.5809820873751
서울 동대문구 제기동 652-2,PM9,약국,"의료,건강 > 약국",,9129586,02-962-8989,세광약국,http://place.map.kakao.com/9129586,서울 동대문구 왕산로 171,127.04214569125011,37.57943704330355
서울 동대문구 청량리동 264,PM9,약국,"의료,건강 > 약국",,11254801,02-962-5324,삼화약국,http://place.map.kakao.com/11254801,서울 동대문구 왕산로 207,127.045810031901,37.5808673572996
서울 동대문구 청량리동 40-8,PM9,약국,"의료,건강 > 약국",,18480913,02-960-3322,신종로약국,http://place.map.kakao.com/18480913,서울 동대문구 왕산로 261,127.05014045991017,37.58435694677429
서울 동대문구 전농동 591-53,PM9,약국,"의료,건강 > 약국",,16080108,02-3707-1588,청량리중앙약국,http://place.map.kakao.com/16080108,서울 동대문구 왕산로 214,127.04838653158087,37.58055638748145
서울 동대문구 신설동 89-20,PM9,약국,"의료,건강 > 약국",,959908065,02-926-8800,하모니약국,http://place.map.kakao.com/959908065,서울 동대문구 왕산로 21,127.02581084906882,37.57667569301069
서울 동대문구 용두동 234-1,PM9,약국,"의료,건강 > 약국",,1435278292,02-926-5269,여름약국,http://place.map.kakao.com/1435278292,서울 동대문구 왕산로 60-1,127.03016389649783,37.57741167432826
서울 동대문구 청량리동 766,PM9,약국,"의료,건강 > 약국",,1615985622,02-964-0675,마음약국,http://place.map.kakao.com/1615985622,서울 동대문구 왕산로 183,127.043576942931,37.5799203573415
서울 동대문구 용두동 52-8,PM9,약국,"의료,건강 > 약국",,20434689,02-965-7804,천사약국,http://place.map.kakao.com/20434689,서울 동대문구 왕산로26길 13,127.03653969156791,37.57741167499193
서울 동대문구 전농동 597-2,PM9,약국,"의료,건강 > 약국",,1978463373,02-555-6880,박한약국,http://place.map.kakao.com/1978463373,서울 동대문구 왕산로 254,127.049753769684,37.5834254834212
서울 동대문구 청량리동 758,PM9,약국,"의료,건강 > 약국",,114600634,02-957-1110,바다약국,http://place.map.kakao.com/114600634,서울 동대문구 왕산로 189-1,127.044106846071,37.5800535076229
서울 동대문구 전농동 620-70,PM9,약국,"의료,건강 > 약국",,16084379,02-957-9550,카톨릭대학약국,http://place.map.kakao.com/16084379,서울 동대문구 왕산로 178,127.043173562361,37.5793114336973
서울 동대문구 청량리동 750,PM9,약국,"의료,건강 > 약국",,746864543,02-960-7784,성모약국,http://place.map.kakao.com/746864543,서울 동대문구 왕산로 193,127.04453262080796,37.580226338576985
서울 동대문구 용두동 104-3,PM9,약국,"의료,건강 > 약국",,1329955113,02-928-7600,푸르지오약국,http://place.map.kakao.com/1329955113,서울 동대문구 왕산로 86,127.03235466284444,37.577917452953486
서울 동대문구 용두동 90-1,PM9,약국,"의료,건강 > 약국",,9927146,02-966-5225,인영약국,http://place.map.kakao.com/9927146,서울 동대문구 왕산로 118,127.03635090596718,37.57796584470605
서울 동대문구 신설동 98-27,PM9,약국,"의료,건강 > 약국",,13503177,02-921-1622,중앙약국,http://place.map.kakao.com/13503177,서울 동대문구 왕산로 20,127.025733680523,37.5761270042587
서울 동대문구 휘경동 320-7,PM9,약국,"의료,건강 > 약국",,16878638,02-959-6380,코아약국,http://place.map.kakao.com/16878638,서울 동대문구 이문로 30,127.05623925620195,37.59009892790092
서울 동대문구 이문동 256-371,PM9,약국,"의료,건강 > 약국",,16618033,02-967-6692,혜중약국,http://place.map.kakao.com/16618033,서울 동대문구 이문로 186,127.06224883321745,37.60315397714667
서울 동대문구 이문동 256-373,PM9,약국,"의료,건강 > 약국",,24573016,02-969-7700,행복한정약국,http://place.map.kakao.com/24573016,서울 동대문구 이문로 188,127.06218334580315,37.603388269118604
서울 동대문구 이문동 292-32,PM9,약국,"의료,건강 > 약국",,16620157,02-969-0308,이문태평양약국,http://place.map.kakao.com/16620157,서울 동대문구 이문로 130,127.0614610271476,37.598113347645175
서울 동대문구 이문동 292-10,PM9,약국,"의료,건강 > 약국",,18099576,02-6403-8310,새싹약국,http://place.map.kakao.com/18099576,서울 동대문구 이문로 136,127.06191541418295,37.59847891248018
서울 동대문구 이문동 291-32,PM9,약국,"의료,건강 > 약국",,9334396,02-962-0345,이문메디칼약국,http://place.map.kakao.com/9334396,서울 동대문구 이문로 131,127.06122005560427,37.598388275126254
서울 동대문구 회기동 346-18,PM9,약국,"의료,건강 > 약국",,543515169,02-962-5008,국민약국,http://place.map.kakao.com/543515169,서울 동대문구 이문로 37,127.0562057729257,37.59074315325979
서울 동대문구 이문동 288-10,PM9,약국,"의료,건강 > 약국",,16792259,02-966-4588,미래로약국,http://place.map.kakao.com/16792259,서울 동대문구 이문로 114,127.06068307449479,37.59670910507683
서울 동대문구 이문동 324-49,PM9,약국,"의료,건강 > 약국",,1489388200,02-969-3222,사랑드림약국,http://place.map.kakao.com/1489388200,서울 동대문구 이문로 83,127.058808500016,37.5946071401296
서울 동대문구 이문동 291-37,PM9,약국,"의료,건강 > 약국",,20539899,02-3295-3040,외대김약국,http://place.map.kakao.com/20539899,서울 동대문구 이문로 125,127.060921837768,37.5978964883593
서울 동대문구 이문동 325-52,PM9,약국,"의료,건강 > 약국",,16300174,02-553-9777,퓨리메드,http://place.map.kakao.com/16300174,서울 동대문구 이문로 86,127.059184320856,37.5944663975985
서울 동대문구 이문동 324-10,PM9,약국,"의료,건강 > 약국",,9080679,02-911-4642,기쁜약국,http://place.map.kakao.com/9080679,서울 동대문구 이문로 88,127.05932035060113,37.59465643852437
서울 동대문구 이문동 225-2,PM9,약국,"의료,건강 > 약국",,16042085,02-957-3153,정다운약국,http://place.map.kakao.com/16042085,서울 동대문구 이문로54길 46,127.06453842197119,37.60550162829829
서울 동대문구 이문동 431,PM9,약국,"의료,건강 > 약국",,1374685015,,오래하는약국,http://place.map.kakao.com/1374685015,서울 동대문구 이문로9길 105-13,127.056631100056,37.5961849399112
서울 동대문구 이문동 291-29,PM9,약국,"의료,건강 > 약국",,25689401,02-965-5926,장수약국,http://place.map.kakao.com/25689401,서울 동대문구 이문로 135,127.061402649149,37.5987287548398
서울 동대문구 장안동 336,PM9,약국,"의료,건강 > 약국",,1556702432,02-3390-4513,미소가득약국,http://place.map.kakao.com/1556702432,서울 동대문구 장안벚꽃로 107,127.07438160844009,37.57093827022995
서울 동대문구 장안동 336,PM9,약국,"의료,건강 > 약국",,16332625,02-2213-9847,홈타운약국,http://place.map.kakao.com/16332625,서울 동대문구 장안벚꽃로 107,127.074288779987,37.5709311207199
서울 동대문구 장안동 372-1,PM9,약국,"의료,건강 > 약국",,9039282,,보림약국,http://place.map.kakao.com/9039282,서울 동대문구 장한로 115,127.070598605152,37.5709730289422
서울 동대문구 장안동 339-27,PM9,약국,"의료,건강 > 약국",,8226686,02-2245-2594,나나약국,http://place.map.kakao.com/8226686,서울 동대문구 장한로18길 59,127.07230826357959,37.567859956325
서울 동대문구 장안동 361-4,PM9,약국,"의료,건강 > 약국",,11880127,02-2246-1220,중경당약국,http://place.map.kakao.com/11880127,서울 동대문구 장한로 58,127.06801660366882,37.56601366363326
서울 동대문구 장안동 321-10,PM9,약국,"의료,건강 > 약국",,1550296082,02-2212-0313,아이약국,http://place.map.kakao.com/1550296082,서울 동대문구 장한로32길 19,127.07322452747073,37.575348461877375
서울 동대문구 장안동 369-3,PM9,약국,"의료,건강 > 약국",,18444868,02-3394-7552,장안제일약국,http://place.map.kakao.com/18444868,서울 동대문구 장한로25길 2,127.071147283127,37.5718196348754
서울 동대문구 장안동 307-3,PM9,약국,"의료,건강 > 약국",,1193601649,02-2249-0908,우주약국,http://place.map.kakao.com/1193601649,서울 동대문구 장한로 139,127.071440443439,37.5729808402221
서울 동대문구 장안동 311-4,PM9,약국,"의료,건강 > 약국",,16705628,02-2247-6565,신한약국,http://place.map.kakao.com/16705628,서울 동대문구 장한로 170,127.0722217012886,37.57551035764801
서울 동대문구 장안동 367-7,PM9,약국,"의료,건강 > 약국",,16933096,02-2215-5290,올리브약국,http://place.map.kakao.com/16933096,서울 동대문구 장한로 124,127.07144461441636,37.57142211652003
서울 동대문구 장안동 433-17,PM9,약국,"의료,건강 > 약국",,9398984,02-2248-7824,조령약국,http://place.map.kakao.com/9398984,서울 동대문구 장한로 12,127.065691985639,37.5624776691244
서울 동대문구 장안동 433-6,PM9,약국,"의료,건강 > 약국",,12957888,070-4229-1954,그랜드온누리약국,http://place.map.kakao.com/12957888,서울 동대문구 장한로 14,127.065769074262,37.5626181816459
서울 동대문구 장안동 429-3,PM9,약국,"의료,건강 > 약국",,13512712,02-2212-4509,조은온누리약국,http://place.map.kakao.com/13512712,서울 동대문구 장한로 51,127.06713681904962,37.56567539275506
서울 동대문구 장안동 382-6,PM9,약국,"의료,건강 > 약국",,8599489,,한림약국,http://place.map.kakao.com/8599489,서울 동대문구 장한로21길 11-12,127.06868165291931,37.56916315930378
서울 동대문구 장안동 378-2,PM9,약국,"의료,건강 > 약국",,193989494,,에스제이팜,http://place.map.kakao.com/193989494,서울 동대문구 장한로17길 13-2,127.06750752024,37.5675654705036
서울 동대문구 장안동 433-15,PM9,약국,"의료,건강 > 약국",,10786545,02-2245-9459,조현약국,http://place.map.kakao.com/10786545,서울 동대문구 장한로6길 10,127.06678172853739,37.56350058959001
서울 동대문구 장안동 369-2,PM9,약국,"의료,건강 > 약국",,16704592,02-2246-9885,그린약국,http://place.map.kakao.com/16704592,서울 동대문구 장한로 129,127.07097539653026,37.5720035413093
서울 동대문구 전농동 135-44,PM9,약국,"의료,건강 > 약국",,1354429068,02-3394-7786,본약국,http://place.map.kakao.com/1354429068,서울 동대문구 전농로 212,127.05402633499133,37.5831560102451
서울 동대문구 답십리동 258-6,PM9,약국,"의료,건강 > 약국",,1164082682,02-2215-8704,365종로약국,http://place.map.kakao.com/1164082682,서울 동대문구 전농로 60-1,127.05740838500319,37.57028821565838
서울 동대문구 전농동 33-16,PM9,약국,"의료,건강 > 약국",,10485066,02-2245-4501,설파약국,http://place.map.kakao.com/10485066,서울 동대문구 전농로 134,127.05797604695233,37.57683997210293
서울 동대문구 답십리동 266-1,PM9,약국,"의료,건강 > 약국",,619354984,02-3390-3093,답십리스타약국,http://place.map.kakao.com/619354984,서울 동대문구 전농로 38,127.057240430329,37.5682538495673
서울 동대문구 전농동 55-90,PM9,약국,"의료,건강 > 약국",,16904157,02-2213-1239,연세약국,http://place.map.kakao.com/16904157,서울 동대문구 전농로16길 11,127.05807914972077,37.57840765121291
서울 동대문구 답십리동 21-8,PM9,약국,"의료,건강 > 약국",,43292916,02-3394-5170,최선약국,http://place.map.kakao.com/43292916,서울 동대문구 전농로 36,127.05737259278855,37.56789789215419
서울 동대문구 답십리동 94-9,PM9,약국,"의료,건강 > 약국",,7813984,02-2215-9454,답십리백화점약국,http://place.map.kakao.com/7813984,서울 동대문구 전농로 102,127.057737248837,37.5739929466089
서울 동대문구 전농동 26-13,PM9,약국,"의료,건강 > 약국",,10421082,02-2217-4365,미소약국,http://place.map.kakao.com/10421082,서울 동대문구 전농로 124,127.05787229344855,37.57588857300415
서울 동대문구 전농동 295-102,PM9,약국,"의료,건강 > 약국",,14707381,02-2243-1101,늘푸른약국,http://place.map.kakao.com/14707381,서울 동대문구 전농로 148,127.05767701653023,37.57809069847491
서울 동대문구 답십리동 488-46,PM9,약국,"의료,건강 > 약국",,16499822,02-2249-6084,삼보약국,http://place.map.kakao.com/16499822,서울 동대문구 전농로 24,127.05684443479149,37.56699985493211
서울 동대문구 답십리동 253-12,PM9,약국,"의료,건강 > 약국",,25807038,02-6229-1863,래미안약국,http://place.map.kakao.com/25807038,서울 동대문구 전농로3길 78-1,127.05611190382436,37.57127813170655
서울 동대문구 답십리동 94-1,PM9,약국,"의료,건강 > 약국",,16446895,02-2248-5023,강북열린약국,http://place.map.kakao.com/16446895,서울 동대문구 전농로 110,127.05775357713351,37.57461462492478
서울 동대문구 답십리동 242-3,PM9,약국,"의료,건강 > 약국",,9584577,02-2214-5180,하늘약국,http://place.map.kakao.com/9584577,서울 동대문구 전농로 91,127.05713202258646,37.573036384621915
서울 동대문구 전농동 295-52,PM9,약국,"의료,건강 > 약국",,16043000,02-2215-6291,뉴메디칼약국,http://place.map.kakao.com/16043000,서울 동대문구 전농로 147,127.05728075347314,37.57804313873417
서울 동대문구 답십리동 80,PM9,약국,"의료,건강 > 약국",,503199480,02-3394-6600,청솔약국,http://place.map.kakao.com/503199480,서울 동대문구 전농로10길 20,127.0581611824975,37.57471353421575
서울 동대문구 청량리동 520-47,PM9,약국,"의료,건강 > 약국",,144193678,02-6494-7756,한신약국,http://place.map.kakao.com/144193678,서울 동대문구 제기로 75,127.041475062891,37.5868299312517
서울 동대문구 청량리동 496,PM9,약국,"의료,건강 > 약국",,8582395,02-964-3365,초원옵티마약국,http://place.map.kakao.com/8582395,서울 동대문구 제기로 84,127.0425142609591,37.58653223391088
서울 동대문구 청량리동 317,PM9,약국,"의료,건강 > 약국",,1224102572,,소망약국,http://place.map.kakao.com/1224102572,서울 동대문구 홍릉로 28,127.044683609897,37.5828211430437
서울 동대문구 청량리동 564,PM9,약국,"의료,건강 > 약국",,24997986,02-968-9988,홍릉종로약국,http://place.map.kakao.com/24997986,서울 동대문구 홍릉로 59,127.043285796786,37.5854489600317
서울 동대문구 청량리동 743-1,PM9,약국,"의료,건강 > 약국",,13500672,02-961-8833,신우약국,http://place.map.kakao.com/13500672,서울 동대문구 홍릉로 5-1,127.04477867734593,37.58087586197762
서울 동대문구 청량리동 742,PM9,약국,"의료,건강 > 약국",,10719232,02-967-9941,정화약국,http://place.map.kakao.com/10719232,서울 동대문구 홍릉로 7,127.04476176138378,37.58098578962159
서울 동대문구 청량리동 744,PM9,약국,"의료,건강 > 약국",,1391830775,02-960-1005,다나은약국,http://place.map.kakao.com/1391830775,서울 동대문구 홍릉로 3,127.04459970326552,37.58070924589926
서울 동대문구 청량리동 318-6,PM9,약국,"의료,건강 > 약국",,9596686,02-960-2083,혜민약국,http://place.map.kakao.com/9596686,서울 동대문구 홍릉로 34-1,127.044398636194,37.5833726584999
서울 동대문구 답십리동 530-17,PM9,약국,"의료,건강 > 약국",,996766969,02-2215-5716,하늘후문약국,http://place.map.kakao.com/996766969,서울 동대문구 황물로 168,127.05603494801765,37.56525861684144
서울 동대문구 휘경동 191-4,PM9,약국,"의료,건강 > 약국",,974827675,02-6212-1494,365회기역약국,http://place.map.kakao.com/974827675,서울 동대문구 회기로 193,127.05749609669304,37.59014337197781
서울 동대문구 휘경동 183-378,PM9,약국,"의료,건강 > 약국",,17249134,02-963-5490,삼익약국,http://place.map.kakao.com/17249134,서울 동대문구 회기로29길 35,127.05800004919574,37.59172797052409
서울 동대문구 회기동 346-1,PM9,약국,"의료,건강 > 약국",,13512243,02-957-3393,메디약국,http://place.map.kakao.com/13512243,서울 동대문구 회기로 173,127.055399378223,37.590446207083
서울 동대문구 이문동 82-25,PM9,약국,"의료,건강 > 약국",,16080806,02-964-7877,자연약국,http://place.map.kakao.com/16080806,서울 동대문구 휘경로 31,127.063419819686,37.5951813870011
서울 동대문구 휘경동 150-26,PM9,약국,"의료,건강 > 약국",,1273036730,02-967-1468,메디컬우리약국,http://place.map.kakao.com/1273036730,서울 동대문구 휘경로 43,127.06477481233878,37.59470582866113
서울 동대문구 휘경동 150-12,PM9,약국,"의료,건강 > 약국",,13500889,02-3295-0248,신종로사약국,http://place.map.kakao.com/13500889,서울 동대문구 휘경로 47,127.06509074966125,37.594726377656364
서울 동대문구 이문동 288-39,PM9,약국,"의료,건강 > 약국",,1247719049,02-960-4983,외대조은약국,http://place.map.kakao.com/1247719049,서울 동대문구 휘경로 10,127.061028932777,37.5959214603888
서울 동대문구 이문동 305-151,PM9,약국,"의료,건강 > 약국",,13512668,02-962-1469,엄마약국,http://place.map.kakao.com/13512668,서울 동대문구 휘경로 15,127.06189399409539,37.59585974251321
서울 동대문구 휘경동 372,PM9,약국,"의료,건강 > 약국",,1890461072,02-962-7273,인애약국,http://place.map.kakao.com/1890461072,서울 동대문구 휘경로 60,127.06507673176526,37.59423264203159
서울 동대문구 이문동 305-2,PM9,약국,"의료,건강 > 약국",,1430458614,,온율약국,http://place.map.kakao.com/1430458614,서울 동대문구 휘경로 13,127.061743521787,37.5960165938133
서울 동대문구 휘경동 163-22,PM9,약국,"의료,건강 > 약국",,13513400,02-3295-4274,바른손약국,http://place.map.kakao.com/13513400,서울 동대문구 휘경로 34,127.06354403400132,37.59477857701318
서울 동대문구 휘경동 149-27,PM9,약국,"의료,건강 > 약국",,9466094,02-967-4548,청운약국,http://place.map.kakao.com/9466094,서울 동대문구 휘경로23길 14,127.065439809489,37.5950721653616
서울 동대문구 이문동 363-5,PM9,약국,"의료,건강 > 약국",,16042529,02-962-9366,킴스팜대보약국,http://place.map.kakao.com/16042529,서울 동대문구 휘경로3길 4,127.06237294280808,37.59581984676377
서울 동대문구 신설동 98-8,PM9,약국,"의료,건강 > 약국",,1987806896,02-927-0311,동신약국,http://place.map.kakao.com/1987806896,서울 동대문구 하정로5길 1,127.02626455773944,37.57597732225767
서울 동대문구 회기동 42-10,PM9,약국,"의료,건강 > 약국",,13507159,02-3295-0055,경희온누리약국,http://place.map.kakao.com/13507159,서울 동대문구 경희대로1가길 32,127.05175073956802,37.59301388838428
서울 동대문구 회기동 42-15,PM9,약국,"의료,건강 > 약국",,9081020,02-964-2199,새경희약국,http://place.map.kakao.com/9081020,서울 동대문구 경희대로1가길 27,127.051506192191,37.5930572429583
서울 동대문구 용두동 39-906,PM9,약국,"의료,건강 > 약국",,13512970,02-965-7162,동대문보건약국,http://place.map.kakao.com/13512970,서울 동대문구 고산자로28가길 2,127.040313816661,37.5749732565652
서울 동대문구 용두동 39-695,PM9,약국,"의료,건강 > 약국",,13503744,02-963-0617,흥명약국,http://place.map.kakao.com/13503744,서울 동대문구 고산자로30길 56,127.041323863111,37.5754738602945
서울 동대문구 제기동 1019,PM9,약국,"의료,건강 > 약국",,13500894,02-967-6217,경원약국,http://place.map.kakao.com/13500894,서울 동대문구 고산자로36길 3,127.03950552076671,37.5792073019406
서울 동대문구 제기동 1019,PM9,약국,"의료,건강 > 약국",,13505413,02-960-5009,한진당약국,http://place.map.kakao.com/13505413,서울 동대문구 고산자로36길 3,127.03941391195907,37.57937942240569
서울 동대문구 제기동 1019,PM9,약국,"의료,건강 > 약국",,13512040,02-964-7482,성우당약국,http://place.map.kakao.com/13512040,서울 동대문구 고산자로36길 3,127.03914316237808,37.579038035785096
서울 동대문구 제기동 992-37,PM9,약국,"의료,건강 > 약국",,1460225939,02-957-9981,우리약국,http://place.map.kakao.com/1460225939,서울 동대문구 고산자로38길 18,127.039582750943,37.5798893284534
서울 동대문구 제기동 900,PM9,약국,"의료,건강 > 약국",,13505318,02-967-6741,동암당약국,http://place.map.kakao.com/13505318,서울 동대문구 고산자로44길 2,127.03893208964479,37.58241863403621
서울 동대문구 답십리동 36-18,PM9,약국,"의료,건강 > 약국",,10046235,02-2212-7582,홍약국,http://place.map.kakao.com/10046235,서울 동대문구 답십리로48가길 46,127.05791493930923,37.571023180327444
서울 동대문구 답십리동 990,PM9,약국,"의료,건강 > 약국",,1953878184,02-2213-7588,참사랑온누리약국,http://place.map.kakao.com/1953878184,서울 동대문구 답십리로56길 21,127.05952989209638,37.57056196849622
서울 동대문구 장안동 394-11,PM9,약국,"의료,건강 > 약국",,10907689,02-2245-2611,행복한약국,http://place.map.kakao.com/10907689,서울 동대문구 답십리로66길 95,127.066218045109,37.5685933357309
서울 동대문구 용두동 127-15,PM9,약국,"의료,건강 > 약국",,15837734,02-926-6969,신상록수약국,http://place.map.kakao.com/15837734,서울 동대문구 무학로26길 5,127.03119242909351,37.573462347907245
서울 동대문구 용두동 102-21,PM9,약국,"의료,건강 > 약국",,16620265,,피에스팜,http://place.map.kakao.com/16620265,서울 동대문구 무학로28길 53-5,127.033711805201,37.5749320787606
서울 동대문구 전농동 295-16,PM9,약국,"의료,건강 > 약국",,16042999,02-2244-7790,우진당약국,http://place.map.kakao.com/16042999,서울 동대문구 사가정로13길 3,127.05797927164316,37.5780788374865
서울 동대문구 장안동 93-10,PM9,약국,"의료,건강 > 약국",,16040981,02-2212-8941,메디팜경애약국,http://place.map.kakao.com/16040981,서울 동대문구 사가정로25길 18,127.07058975328027,37.579583838042254
서울 동대문구 장안동 93-27,PM9,약국,"의료,건강 > 약국",,16618659,02-2248-1113,늘조은온누리약국,http://place.map.kakao.com/16618659,서울 동대문구 사가정로25길 66,127.07119740757695,37.58166476835774
서울 동대문구 휘경동 276-57,PM9,약국,"의료,건강 > 약국",,9959873,02-2213-5005,메디팜사랑약국,http://place.map.kakao.com/9959873,서울 동대문구 망우로18길 6,127.062310042795,37.5896426801869
서울 동대문구 휘경동 286-230,PM9,약국,"의료,건강 > 약국",,20458487,02-909-3636,넘버원삼육약국,http://place.map.kakao.com/20458487,서울 동대문구 망우로18길 26,127.062667102705,37.5887703305721
서울 동대문구 휘경동 286-121,PM9,약국,"의료,건강 > 약국",,9763255,02-2246-7471,명약국,http://place.map.kakao.com/9763255,서울 동대문구 망우로18나길 3,127.060573574534,37.5873478552976
서울 동대문구 휘경동 254,PM9,약국,"의료,건강 > 약국",,16792589,02-2245-9388,영림약국,http://place.map.kakao.com/16792589,서울 동대문구 망우로21길 16,127.06232547279379,37.59049501067131
서울 동대문구 이문동 237-2,PM9,약국,"의료,건강 > 약국",,13508810,02-967-8806,코끼리약국,http://place.map.kakao.com/13508810,서울 동대문구 신이문로24길 4,127.066311813678,37.6028490315269
서울 동대문구 제기동 930-3,PM9,약국,"의료,건강 > 약국",,23288629,02-960-3888,신우당,http://place.map.kakao.com/23288629,서울 동대문구 약령동길 84,127.038103178853,37.582059408106
서울 동대문구 제기동 1108,PM9,약국,"의료,건강 > 약국",,8388356,02-965-3001,삼천당약국,http://place.map.kakao.com/8388356,서울 동대문구 약령동길 41,127.03768562994954,37.580228723023964
서울 동대문구 제기동 930-2,PM9,약국,"의료,건강 > 약국",,2145223084,02-964-3102,보창백옥약국,http://place.map.kakao.com/2145223084,서울 동대문구 약령동길 86,127.038103221098,37.5821422994959
서울 동대문구 제기동 1125-6,PM9,약국,"의료,건강 > 약국",,1751539617,02-968-3315,경희삼일한약국,http://place.map.kakao.com/1751539617,서울 동대문구 약령동길 17,127.037734873411,37.5791006629433
서울 동대문구 제기동 1140-49,PM9,약국,"의료,건강 > 약국",,16058356,02-957-4109,광선당약국,http://place.map.kakao.com/16058356,서울 동대문구 약령서1길 32,127.03646621478721,37.57995340190786
서울 동대문구 제기동 1140-49,PM9,약국,"의료,건강 > 약국",,16058356,02-957-4109,광선당약국,http://place.map.kakao.com/16058356,서울 동대문구 약령서1길 32,127.03646621478721,37.57995340190786
서울 동대문구 용두동 52-8,PM9,약국,"의료,건강 > 약국",,20434689,02-965-7804,천사약국,http://place.map.kakao.com/20434689,서울 동대문구 왕산로26길 13,127.03653969156791,37.57741167499193
서울 동대문구 제기동 950-2,PM9,약국,"의료,건강 > 약국",,895210320,02-968-4949,아산당약국,http://place.map.kakao.com/895210320,서울 동대문구 약령중앙로10길 3,127.03753393334298,37.58249567132868
서울 동대문구 용두동 793,PM9,약국,"의료,건강 > 약국",,740875592,02-957-9784,건강한약국,http://place.map.kakao.com/740875592,서울 동대문구 왕산로32길 7,127.041796609218,37.5787280851667
서울 동대문구 제기동 1109-6,PM9,약국,"의료,건강 > 약국",,10677394,02-962-8600,유원당약국,http://place.map.kakao.com/10677394,서울 동대문구 약령중앙로4길 9,127.03768548780799,37.57994671200217
서울 동대문구 제기동 1115-12,PM9,약국,"의료,건강 > 약국",,2031661994,02-965-2069,현지당약국,http://place.map.kakao.com/2031661994,서울 동대문구 약령중앙로4길 4,127.03724615826764,37.57979998943895
서울 동대문구 제기동 1115-12,PM9,약국,"의료,건강 > 약국",,1599107416,,조은약국,http://place.map.kakao.com/1599107416,서울 동대문구 약령중앙로4길 4,127.037246158268,37.579799989439
서울 동대문구 청량리동 40-16,PM9,약국,"의료,건강 > 약국",,22106993,02-968-1011,후문약국,http://place.map.kakao.com/22106993,서울 동대문구 왕산로45길 8,127.0494621376631,37.584127479702694
서울 동대문구 이문동 225-2,PM9,약국,"의료,건강 > 약국",,16042085,02-957-3153,정다운약국,http://place.map.kakao.com/16042085,서울 동대문구 이문로54길 46,127.06453842197119,37.60550162829829
서울 동대문구 이문동 431,PM9,약국,"의료,건강 > 약국",,1374685015,,오래하는약국,http://place.map.kakao.com/1374685015,서울 동대문구 이문로9길 105-13,127.056631100056,37.5961849399112
서울 동대문구 장안동 378-2,PM9,약국,"의료,건강 > 약국",,193989494,,에스제이팜,http://place.map.kakao.com/193989494,서울 동대문구 장한로17길 13-2,127.06750752024,37.5675654705036
서울 동대문구 장안동 339-27,PM9,약국,"의료,건강 > 약국",,8226686,02-2245-2594,나나약국,http://place.map.kakao.com/8226686,서울 동대문구 장한로18길 59,127.07230826357959,37.567859956325
서울 동대문구 장안동 382-6,PM9,약국,"의료,건강 > 약국",,8599489,,한림약국,http://place.map.kakao.com/8599489,서울 동대문구 장한로21길 11-12,127.06868165291931,37.56916315930378
서울 동대문구 장안동 369-3,PM9,약국,"의료,건강 > 약국",,18444868,02-3394-7552,장안제일약국,http://place.map.kakao.com/18444868,서울 동대문구 장한로25길 2,127.071147283127,37.5718196348754
서울 동대문구 장안동 309-4,PM9,약국,"의료,건강 > 약국",,10662887,02-569-0823,신유약국,http://place.map.kakao.com/10662887,서울 동대문구 장한로28가길 1,127.07235744024459,37.573061371266625
서울 동대문구 장안동 321-10,PM9,약국,"의료,건강 > 약국",,1550296082,02-2212-0313,아이약국,http://place.map.kakao.com/1550296082,서울 동대문구 장한로32길 19,127.07322452747073,37.575348461877375
서울 동대문구 장안동 311-5,PM9,약국,"의료,건강 > 약국",,76620391,,그린약국,http://place.map.kakao.com/76620391,서울 동대문구 장한로32길 7,127.07252971739,37.5756155851491
서울 동대문구 장안동 311-5,PM9,약국,"의료,건강 > 약국",,16820735,02-2212-1620,봄약국,http://place.map.kakao.com/16820735,서울 동대문구 장한로32길 7,127.0726641812533,37.575359620051394
서울 동대문구 장안동 433-15,PM9,약국,"의료,건강 > 약국",,10786545,02-2245-9459,조현약국,http://place.map.kakao.com/10786545,서울 동대문구 장한로6길 10,127.06678172853739,37.56350058959001
서울 동대문구 답십리동 80,PM9,약국,"의료,건강 > 약국",,503199480,02-3394-6600,청솔약국,http://place.map.kakao.com/503199480,서울 동대문구 전농로10길 20,127.0581611824975,37.57471353421575
서울 동대문구 전농동 55-90,PM9,약국,"의료,건강 > 약국",,16904157,02-2213-1239,연세약국,http://place.map.kakao.com/16904157,서울 동대문구 전농로16길 11,127.05807914972077,37.57840765121291
서울 동대문구 답십리동 253-12,PM9,약국,"의료,건강 > 약국",,25807038,02-6229-1863,래미안약국,http://place.map.kakao.com/25807038,서울 동대문구 전농로3길 78-1,127.05611190382436,37.57127813170655
서울 동대문구 용두동 100-1,PM9,약국,"의료,건강 > 약국",,16415172,02-3493-6912,청수약국,http://place.map.kakao.com/16415172,서울 동대문구 천호대로25길 81,127.03395310261833,37.577811587718756
서울 동대문구 용두동 234-35,PM9,약국,"의료,건강 > 약국",,16268220,02-928-7467,대명당약국,http://place.map.kakao.com/16268220,서울 동대문구 천호대로13길 56,127.03008993407512,37.57647195612357
서울 동대문구 용두동 112-22,PM9,약국,"의료,건강 > 약국",,2032071194,02-962-7244,동안메디약국,http://place.map.kakao.com/2032071194,서울 동대문구 천호대로17길 75,127.03215407469716,37.57742646592278
서울 동대문구 신설동 98-8,PM9,약국,"의료,건강 > 약국",,1987806896,02-927-0311,동신약국,http://place.map.kakao.com/1987806896,서울 동대문구 하정로5길 1,127.02626455773944,37.57597732225767
서울 동대문구 답십리동 16-15,PM9,약국,"의료,건강 > 약국",,9010700,02-2245-7948,민성약국,http://place.map.kakao.com/9010700,서울 동대문구 한천로11길 32,127.06050742962,37.5671728275927
서울 동대문구 답십리동 13-19,PM9,약국,"의료,건강 > 약국",,10188324,02-966-3054,남지약국,http://place.map.kakao.com/10188324,서울 동대문구 한천로11길 43,127.05992881988034,37.566919041921466
서울 동대문구 장안동 432-4,PM9,약국,"의료,건강 > 약국",,1224191621,02-3394-8432,초록약국,http://place.map.kakao.com/1224191621,서울 동대문구 한천로2길 107,127.06452050021018,37.562441374280375
서울 동대문구 장안동 93-86,PM9,약국,"의료,건강 > 약국",,10069815,02-2217-5861,이웃사랑약국,http://place.map.kakao.com/10069815,서울 동대문구 한천로46길 56-4,127.07136833504245,37.58163943732368
서울 동대문구 이문동 64,PM9,약국,"의료,건강 > 약국",,13512962,02-960-4773,이룸약국,http://place.map.kakao.com/13512962,서울 동대문구 한천로58길 47,127.06834292623797,37.60105940697106
서울 동대문구 장안동 424-9,PM9,약국,"의료,건강 > 약국",,516273501,02-2244-1437,보명약국,http://place.map.kakao.com/516273501,서울 동대문구 천호대로79길 66,127.0644378604737,37.565051605484825
서울 동대문구 장안동 423-3,PM9,약국,"의료,건강 > 약국",,13500660,02-422-5060,맑은샘약국,http://place.map.kakao.com/13500660,서울 동대문구 천호대로83길 39,127.06519529229767,37.56398801424641
서울 동대문구 휘경동 183-378,PM9,약국,"의료,건강 > 약국",,17249134,02-963-5490,삼익약국,http://place.map.kakao.com/17249134,서울 동대문구 회기로29길 35,127.05800004919574,37.59172797052409
서울 동대문구 휘경동 149-27,PM9,약국,"의료,건강 > 약국",,9466094,02-967-4548,청운약국,http://place.map.kakao.com/9466094,서울 동대문구 휘경로23길 14,127.065439809489,37.5950721653616
서울 동대문구 이문동 363-5,PM9,약국,"의료,건강 > 약국",,16042529,02-962-9366,킴스팜대보약국,http://place.map.kakao.com/16042529,서울 동대문구 휘경로3길 4,127.06237294280808,37.59581984676377